{
 "type": "Feature",
 "properties": {
  "shape_id": "ALM_2B_CIRC_SUMMER",
  "osm_relation": 18496909,
  "attribution": "© OpenStreetMap contributors, ODbL"
 },
 "geometry": {
  "type": "LineString",
  "coordinates": [
   [
    -3.690196,
    36.735884
   ],
   [
    -3.690137,
    36.735887
   ],
   [
    -3.690082,
    36.735912
   ],
   [
    -3.690047,
    36.735955
   ],
   [
    -3.69004,
    36.736005
   ],
   [
    -3.690062,
    36.736053
   ],
   [
    -3.6901,
    36.736083
   ],
   [
    -3.69002,
    36.736121
   ],
   [
    -3.690069,
    36.73621
   ],
   [
    -3.690094,
    36.736291
   ],
   [
    -3.690111,
    36.736376
   ],
   [
    -3.690123,
    36.736429
   ],
   [
    -3.690104,
    36.736471
   ],
   [
    -3.690113,
    36.736516
   ],
   [
    -3.690146,
    36.736552
   ],
   [
    -3.690209,
    36.736573
   ],
   [
    -3.690276,
    36.736562
   ],
   [
    -3.690324,
    36.736523
   ],
   [
    -3.690387,
    36.736582
   ],
   [
    -3.690588,
    36.736814
   ],
   [
    -3.69091,
    36.736623
   ],
   [
    -3.690758,
    36.73644
   ],
   [
    -3.691026,
    36.736267
   ],
   [
    -3.691056,
    36.736289
   ],
   [
    -3.691162,
    36.736418
   ],
   [
    -3.691259,
    36.73655
   ],
   [
    -3.691434,
    36.736736
   ],
   [
    -3.691762,
    36.736373
   ],
   [
    -3.692008,
    36.736019
   ],
   [
    -3.69207,
    36.735943
   ],
   [
    -3.692119,
    36.73597
   ],
   [
    -3.692347,
    36.736083
   ],
   [
    -3.692572,
    36.736199
   ],
   [
    -3.692604,
    36.736228
   ],
   [
    -3.692617,
    36.736235
   ],
   [
    -3.692726,
    36.736291
   ],
   [
    -3.692744,
    36.736302
   ],
   [
    -3.693016,
    36.736453
   ],
   [
    -3.693268,
    36.736589
   ],
   [
    -3.693749,
    36.736834
   ],
   [
    -3.694111,
    36.737021
   ],
   [
    -3.694465,
    36.737209
   ],
   [
    -3.694519,
    36.737237
   ],
   [
    -3.694523,
    36.73724
   ],
   [
    -3.694763,
    36.737365
   ],
   [
    -3.694934,
    36.737455
   ],
   [
    -3.695097,
    36.73754
   ],
   [
    -3.69526,
    36.737625
   ],
   [
    -3.69534,
    36.737667
   ],
   [
    -3.695725,
    36.737856
   ],
   [
    -3.69581,
    36.737898
   ],
   [
    -3.696017,
    36.737999
   ],
   [
    -3.697358,
    36.738701
   ],
   [
    -3.697854,
    36.738967
   ],
   [
    -3.697909,
    36.738997
   ],
   [
    -3.698078,
    36.739112
   ],
   [
    -3.698146,
    36.739175
   ],
   [
    -3.69821,
    36.73926
   ],
   [
    -3.698281,
    36.739401
   ],
   [
    -3.698367,
    36.739631
   ],
   [
    -3.69839,
    36.739713
   ],
   [
    -3.698432,
    36.739898
   ],
   [
    -3.698529,
    36.7401
   ],
   [
    -3.698587,
    36.740171
   ],
   [
    -3.698682,
    36.740214
   ],
   [
    -3.698874,
    36.740271
   ],
   [
    -3.698934,
    36.740266
   ],
   [
    -3.699042,
    36.740257
   ],
   [
    -3.699224,
    36.740229
   ],
   [
    -3.699364,
    36.740201
   ],
   [
    -3.699742,
    36.740128
   ],
   [
    -3.700004,
    36.740102
   ],
   [
    -3.70025,
    36.740091
   ],
   [
    -3.700463,
    36.740099
   ],
   [
    -3.700683,
    36.740126
   ],
   [
    -3.701191,
    36.740229
   ],
   [
    -3.701393,
    36.740251
   ],
   [
    -3.701571,
    36.740237
   ],
   [
    -3.701743,
    36.740203
   ],
   [
    -3.701933,
    36.74014
   ],
   [
    -3.702484,
    36.739906
   ],
   [
    -3.702773,
    36.739807
   ],
   [
    -3.703062,
    36.739753
   ],
   [
    -3.703311,
    36.739743
   ],
   [
    -3.703531,
    36.739764
   ],
   [
    -3.703749,
    36.739817
   ],
   [
    -3.703934,
    36.739885
   ],
   [
    -3.704108,
    36.739977
   ],
   [
    -3.704259,
    36.740079
   ],
   [
    -3.705258,
    36.740836
   ],
   [
    -3.705387,
    36.740919
   ],
   [
    -3.70552,
    36.740971
   ],
   [
    -3.705682,
    36.740989
   ],
   [
    -3.705821,
    36.740976
   ],
   [
    -3.705945,
    36.740941
   ],
   [
    -3.706068,
    36.740884
   ],
   [
    -3.706166,
    36.740819
   ],
   [
    -3.706242,
    36.740747
   ],
   [
    -3.706307,
    36.740664
   ],
   [
    -3.706353,
    36.740569
   ],
   [
    -3.70638,
    36.740451
   ],
   [
    -3.706382,
    36.740323
   ],
   [
    -3.706362,
    36.74002
   ],
   [
    -3.706396,
    36.739845
   ],
   [
    -3.70648,
    36.739649
   ],
   [
    -3.706627,
    36.739459
   ],
   [
    -3.70731,
    36.738854
   ],
   [
    -3.70748,
    36.738737
   ],
   [
    -3.707893,
    36.73852
   ],
   [
    -3.708017,
    36.738417
   ],
   [
    -3.708104,
    36.738309
   ],
   [
    -3.708183,
    36.738168
   ],
   [
    -3.70822,
    36.738098
   ],
   [
    -3.708255,
    36.738025
   ],
   [
    -3.708373,
    36.737732
   ],
   [
    -3.708629,
    36.737096
   ],
   [
    -3.708676,
    36.736995
   ],
   [
    -3.708753,
    36.736841
   ],
   [
    -3.708862,
    36.736712
   ],
   [
    -3.708982,
    36.736613
   ],
   [
    -3.70914,
    36.736516
   ],
   [
    -3.709344,
    36.736443
   ],
   [
    -3.709586,
    36.736398
   ],
   [
    -3.709799,
    36.7364
   ],
   [
    -3.710015,
    36.736433
   ],
   [
    -3.710207,
    36.736488
   ],
   [
    -3.710309,
    36.736532
   ],
   [
    -3.7105,
    36.736634
   ],
   [
    -3.711467,
    36.737293
   ],
   [
    -3.711561,
    36.737361
   ],
   [
    -3.711923,
    36.737608
   ],
   [
    -3.712272,
    36.737842
   ],
   [
    -3.712405,
    36.737925
   ],
   [
    -3.712546,
    36.738002
   ],
   [
    -3.712741,
    36.738075
   ],
   [
    -3.712939,
    36.73813
   ],
   [
    -3.713142,
    36.738159
   ],
   [
    -3.713364,
    36.738166
   ],
   [
    -3.713611,
    36.738142
   ],
   [
    -3.713759,
    36.73811
   ],
   [
    -3.713916,
    36.738065
   ],
   [
    -3.714107,
    36.737995
   ],
   [
    -3.714331,
    36.73786
   ],
   [
    -3.714439,
    36.737773
   ],
   [
    -3.714559,
    36.737668
   ],
   [
    -3.71467,
    36.737531
   ],
   [
    -3.714752,
    36.737399
   ],
   [
    -3.71481,
    36.737259
   ],
   [
    -3.714857,
    36.737108
   ],
   [
    -3.714878,
    36.736945
   ],
   [
    -3.714875,
    36.736825
   ],
   [
    -3.714874,
    36.736773
   ],
   [
    -3.714808,
    36.736212
   ],
   [
    -3.7148,
    36.736056
   ],
   [
    -3.714826,
    36.735916
   ],
   [
    -3.714874,
    36.735778
   ],
   [
    -3.714956,
    36.735658
   ],
   [
    -3.715048,
    36.735556
   ],
   [
    -3.715176,
    36.735463
   ],
   [
    -3.715361,
    36.735372
   ],
   [
    -3.715459,
    36.735341
   ],
   [
    -3.715625,
    36.735306
   ],
   [
    -3.715799,
    36.735302
   ],
   [
    -3.71596,
    36.735323
   ],
   [
    -3.716139,
    36.735368
   ],
   [
    -3.716272,
    36.735427
   ],
   [
    -3.716422,
    36.735514
   ],
   [
    -3.716512,
    36.735579
   ],
   [
    -3.716633,
    36.735704
   ],
   [
    -3.716743,
    36.735842
   ],
   [
    -3.717028,
    36.736291
   ],
   [
    -3.717151,
    36.73643
   ],
   [
    -3.71728,
    36.736534
   ],
   [
    -3.717436,
    36.736635
   ],
   [
    -3.71757,
    36.736698
   ],
   [
    -3.717731,
    36.736743
   ],
   [
    -3.717855,
    36.736769
   ],
   [
    -3.717983,
    36.736782
   ],
   [
    -3.718103,
    36.736786
   ],
   [
    -3.718277,
    36.736767
   ],
   [
    -3.718546,
    36.736713
   ],
   [
    -3.719002,
    36.736598
   ],
   [
    -3.719189,
    36.736562
   ],
   [
    -3.719355,
    36.736548
   ],
   [
    -3.719514,
    36.736555
   ],
   [
    -3.719686,
    36.73658
   ],
   [
    -3.719847,
    36.736618
   ],
   [
    -3.720018,
    36.736684
   ],
   [
    -3.720158,
    36.736766
   ],
   [
    -3.720252,
    36.736837
   ],
   [
    -3.720549,
    36.737088
   ],
   [
    -3.720709,
    36.737199
   ],
   [
    -3.720872,
    36.73729
   ],
   [
    -3.721057,
    36.737363
   ],
   [
    -3.721225,
    36.737408
   ],
   [
    -3.721419,
    36.737432
   ],
   [
    -3.721599,
    36.737432
   ],
   [
    -3.721794,
    36.737417
   ],
   [
    -3.722569,
    36.737296
   ],
   [
    -3.722904,
    36.73723
   ],
   [
    -3.723161,
    36.737197
   ],
   [
    -3.723329,
    36.737194
   ],
   [
    -3.723477,
    36.737189
   ],
   [
    -3.723731,
    36.737192
   ],
   [
    -3.724082,
    36.737228
   ],
   [
    -3.724431,
    36.737299
   ],
   [
    -3.724712,
    36.737377
   ],
   [
    -3.724994,
    36.737478
   ],
   [
    -3.72558,
    36.737788
   ],
   [
    -3.725873,
    36.737901
   ],
   [
    -3.72618,
    36.737982
   ],
   [
    -3.726387,
    36.738021
   ],
   [
    -3.726608,
    36.738042
   ],
   [
    -3.726828,
    36.738041
   ],
   [
    -3.727102,
    36.738012
   ],
   [
    -3.72734,
    36.737962
   ],
   [
    -3.72758,
    36.737894
   ],
   [
    -3.727742,
    36.737825
   ],
   [
    -3.727893,
    36.737741
   ],
   [
    -3.728051,
    36.73764
   ],
   [
    -3.728204,
    36.737504
   ],
   [
    -3.728377,
    36.737309
   ],
   [
    -3.728513,
    36.737152
   ],
   [
    -3.728734,
    36.736944
   ],
   [
    -3.728884,
    36.73684
   ],
   [
    -3.729041,
    36.736757
   ],
   [
    -3.729219,
    36.736697
   ],
   [
    -3.729444,
    36.736657
   ],
   [
    -3.729677,
    36.736655
   ],
   [
    -3.729936,
    36.736672
   ],
   [
    -3.730709,
    36.736717
   ],
   [
    -3.731018,
    36.736743
   ],
   [
    -3.731358,
    36.736775
   ],
   [
    -3.731857,
    36.736803
   ],
   [
    -3.732663,
    36.736837
   ],
   [
    -3.733638,
    36.736902
   ],
   [
    -3.733804,
    36.73693
   ],
   [
    -3.733965,
    36.736971
   ],
   [
    -3.73411,
    36.737017
   ],
   [
    -3.734243,
    36.737073
   ],
   [
    -3.734362,
    36.737141
   ],
   [
    -3.734465,
    36.737215
   ],
   [
    -3.734564,
    36.737291
   ],
   [
    -3.734653,
    36.737373
   ],
   [
    -3.734728,
    36.737451
   ],
   [
    -3.734788,
    36.737533
   ],
   [
    -3.734852,
    36.737622
   ],
   [
    -3.734895,
    36.737718
   ],
   [
    -3.73493,
    36.737828
   ],
   [
    -3.734943,
    36.737932
   ],
   [
    -3.734985,
    36.738273
   ],
   [
    -3.735013,
    36.738527
   ],
   [
    -3.735078,
    36.738708
   ],
   [
    -3.735193,
    36.738897
   ],
   [
    -3.735367,
    36.739082
   ],
   [
    -3.735549,
    36.739207
   ],
   [
    -3.735685,
    36.73927
   ],
   [
    -3.735831,
    36.739325
   ],
   [
    -3.735978,
    36.739364
   ],
   [
    -3.736139,
    36.739393
   ],
   [
    -3.736313,
    36.739406
   ],
   [
    -3.736562,
    36.739389
   ],
   [
    -3.736784,
    36.739339
   ],
   [
    -3.736989,
    36.73926
   ],
   [
    -3.7372,
    36.739128
   ],
   [
    -3.737363,
    36.73898
   ],
   [
    -3.737426,
    36.738907
   ],
   [
    -3.737464,
    36.738852
   ],
   [
    -3.737574,
    36.738766
   ],
   [
    -3.737695,
    36.738601
   ],
   [
    -3.738071,
    36.738036
   ],
   [
    -3.738281,
    36.737736
   ],
   [
    -3.738602,
    36.73726
   ],
   [
    -3.738987,
    36.736681
   ],
   [
    -3.739087,
    36.736478
   ],
   [
    -3.739148,
    36.736387
   ],
   [
    -3.739296,
    36.736158
   ],
   [
    -3.739483,
    36.735922
   ],
   [
    -3.739613,
    36.735809
   ],
   [
    -3.739763,
    36.73574
   ],
   [
    -3.739868,
    36.735706
   ],
   [
    -3.739883,
    36.73563
   ],
   [
    -3.739908,
    36.735557
   ],
   [
    -3.739914,
    36.735483
   ],
   [
    -3.739854,
    36.735439
   ],
   [
    -3.73978,
    36.735415
   ],
   [
    -3.739616,
    36.735345
   ],
   [
    -3.739551,
    36.735288
   ],
   [
    -3.739537,
    36.735227
   ],
   [
    -3.739578,
    36.735163
   ],
   [
    -3.739642,
    36.735138
   ],
   [
    -3.739973,
    36.735149
   ],
   [
    -3.740169,
    36.735052
   ],
   [
    -3.740229,
    36.734998
   ],
   [
    -3.740369,
    36.734869
   ],
   [
    -3.740617,
    36.734646
   ],
   [
    -3.740647,
    36.734619
   ],
   [
    -3.740722,
    36.734552
   ],
   [
    -3.740754,
    36.734521
   ],
   [
    -3.740875,
    36.734407
   ],
   [
    -3.740982,
    36.734305
   ],
   [
    -3.741014,
    36.734278
   ],
   [
    -3.741189,
    36.734123
   ],
   [
    -3.741225,
    36.734091
   ],
   [
    -3.741274,
    36.734051
   ],
   [
    -3.741339,
    36.734014
   ],
   [
    -3.741366,
    36.733998
   ],
   [
    -3.741405,
    36.733975
   ],
   [
    -3.741427,
    36.733987
   ],
   [
    -3.741451,
    36.733994
   ],
   [
    -3.741477,
    36.733994
   ],
   [
    -3.741502,
    36.733989
   ],
   [
    -3.741556,
    36.734002
   ],
   [
    -3.741686,
    36.734042
   ],
   [
    -3.741743,
    36.734087
   ],
   [
    -3.741914,
    36.73422
   ],
   [
    -3.741971,
    36.734264
   ],
   [
    -3.742249,
    36.734476
   ],
   [
    -3.742414,
    36.734575
   ],
   [
    -3.742634,
    36.734698
   ],
   [
    -3.742814,
    36.734799
   ],
   [
    -3.743017,
    36.73491
   ],
   [
    -3.743362,
    36.735102
   ],
   [
    -3.743478,
    36.735167
   ],
   [
    -3.743722,
    36.7353
   ],
   [
    -3.74384,
    36.735363
   ],
   [
    -3.744286,
    36.735598
   ],
   [
    -3.744562,
    36.735743
   ],
   [
    -3.744897,
    36.735941
   ],
   [
    -3.745189,
    36.73609
   ],
   [
    -3.745253,
    36.736121
   ],
   [
    -3.745318,
    36.736156
   ],
   [
    -3.745426,
    36.736216
   ],
   [
    -3.745582,
    36.736302
   ],
   [
    -3.745676,
    36.736354
   ],
   [
    -3.745784,
    36.736412
   ],
   [
    -3.745955,
    36.736505
   ],
   [
    -3.746039,
    36.736548
   ],
   [
    -3.746148,
    36.736606
   ],
   [
    -3.746237,
    36.736649
   ],
   [
    -3.746256,
    36.736658
   ],
   [
    -3.746737,
    36.736931
   ],
   [
    -3.747283,
    36.737204
   ],
   [
    -3.74742,
    36.737273
   ],
   [
    -3.747781,
    36.737445
   ],
   [
    -3.7479,
    36.737495
   ],
   [
    -3.748098,
    36.737582
   ],
   [
    -3.748252,
    36.737649
   ],
   [
    -3.748396,
    36.737711
   ],
   [
    -3.748535,
    36.737769
   ],
   [
    -3.74874,
    36.737853
   ],
   [
    -3.748821,
    36.737886
   ],
   [
    -3.74897,
    36.737942
   ],
   [
    -3.74921,
    36.738031
   ],
   [
    -3.749483,
    36.738132
   ],
   [
    -3.749793,
    36.738255
   ],
   [
    -3.749971,
    36.738306
   ],
   [
    -3.750309,
    36.738348
   ],
   [
    -3.751548,
    36.738475
   ],
   [
    -3.751816,
    36.7385
   ],
   [
    -3.752483,
    36.738569
   ],
   [
    -3.752585,
    36.73858
   ],
   [
    -3.752903,
    36.738614
   ],
   [
    -3.753438,
    36.738735
   ],
   [
    -3.753598,
    36.738777
   ],
   [
    -3.75373,
    36.738833
   ],
   [
    -3.754083,
    36.738897
   ],
   [
    -3.754353,
    36.738926
   ],
   [
    -3.754399,
    36.738906
   ],
   [
    -3.754416,
    36.738859
   ],
   [
    -3.754378,
    36.738836
   ],
   [
    -3.754221,
    36.738845
   ],
   [
    -3.75409,
    36.738837
   ],
   [
    -3.753598,
    36.738777
   ],
   [
    -3.753438,
    36.738735
   ],
   [
    -3.752903,
    36.738614
   ],
   [
    -3.752585,
    36.73858
   ],
   [
    -3.752483,
    36.738569
   ],
   [
    -3.751816,
    36.7385
   ],
   [
    -3.751548,
    36.738475
   ],
   [
    -3.750309,
    36.738348
   ],
   [
    -3.749971,
    36.738306
   ],
   [
    -3.749793,
    36.738255
   ],
   [
    -3.749483,
    36.738132
   ],
   [
    -3.74921,
    36.738031
   ],
   [
    -3.74897,
    36.737942
   ],
   [
    -3.748821,
    36.737886
   ],
   [
    -3.74874,
    36.737853
   ],
   [
    -3.748535,
    36.737769
   ],
   [
    -3.748396,
    36.737711
   ],
   [
    -3.748252,
    36.737649
   ],
   [
    -3.748098,
    36.737582
   ],
   [
    -3.7479,
    36.737495
   ],
   [
    -3.747781,
    36.737445
   ],
   [
    -3.74742,
    36.737273
   ],
   [
    -3.747283,
    36.737204
   ],
   [
    -3.746737,
    36.736931
   ],
   [
    -3.746256,
    36.736658
   ],
   [
    -3.746237,
    36.736649
   ],
   [
    -3.746148,
    36.736606
   ],
   [
    -3.746039,
    36.736548
   ],
   [
    -3.745955,
    36.736505
   ],
   [
    -3.745784,
    36.736412
   ],
   [
    -3.745676,
    36.736354
   ],
   [
    -3.745582,
    36.736302
   ],
   [
    -3.745426,
    36.736216
   ],
   [
    -3.745318,
    36.736156
   ],
   [
    -3.745253,
    36.736121
   ],
   [
    -3.745189,
    36.73609
   ],
   [
    -3.744897,
    36.735941
   ],
   [
    -3.744562,
    36.735743
   ],
   [
    -3.744286,
    36.735598
   ],
   [
    -3.74384,
    36.735363
   ],
   [
    -3.743722,
    36.7353
   ],
   [
    -3.743478,
    36.735167
   ],
   [
    -3.743362,
    36.735102
   ],
   [
    -3.743017,
    36.73491
   ],
   [
    -3.742814,
    36.734799
   ],
   [
    -3.742634,
    36.734698
   ],
   [
    -3.742414,
    36.734575
   ],
   [
    -3.742249,
    36.734476
   ],
   [
    -3.741971,
    36.734264
   ],
   [
    -3.741914,
    36.73422
   ],
   [
    -3.741743,
    36.734087
   ],
   [
    -3.741686,
    36.734042
   ],
   [
    -3.741594,
    36.733942
   ],
   [
    -3.741554,
    36.733918
   ],
   [
    -3.741547,
    36.733896
   ],
   [
    -3.741532,
    36.733877
   ],
   [
    -3.741509,
    36.733862
   ],
   [
    -3.741482,
    36.733854
   ],
   [
    -3.741427,
    36.733818
   ],
   [
    -3.741301,
    36.733744
   ],
   [
    -3.741255,
    36.733702
   ],
   [
    -3.741095,
    36.733585
   ],
   [
    -3.741055,
    36.733558
   ],
   [
    -3.741034,
    36.733542
   ],
   [
    -3.740956,
    36.733481
   ],
   [
    -3.74083,
    36.733381
   ],
   [
    -3.740687,
    36.733268
   ],
   [
    -3.740611,
    36.733207
   ],
   [
    -3.740547,
    36.733156
   ],
   [
    -3.74046,
    36.733088
   ],
   [
    -3.740261,
    36.73293
   ],
   [
    -3.740146,
    36.732839
   ],
   [
    -3.739862,
    36.732633
   ],
   [
    -3.739747,
    36.732542
   ],
   [
    -3.739642,
    36.732461
   ],
   [
    -3.739431,
    36.732294
   ],
   [
    -3.739353,
    36.732233
   ],
   [
    -3.739192,
    36.732096
   ],
   [
    -3.738954,
    36.731893
   ],
   [
    -3.738913,
    36.731858
   ],
   [
    -3.738795,
    36.731751
   ],
   [
    -3.738694,
    36.73167
   ],
   [
    -3.738415,
    36.731439
   ],
   [
    -3.738344,
    36.731378
   ],
   [
    -3.738237,
    36.731284
   ],
   [
    -3.737951,
    36.731042
   ],
   [
    -3.737883,
    36.730981
   ],
   [
    -3.737844,
    36.730946
   ],
   [
    -3.737797,
    36.730907
   ],
   [
    -3.737595,
    36.730727
   ],
   [
    -3.737317,
    36.730483
   ],
   [
    -3.737259,
    36.730429
   ],
   [
    -3.737142,
    36.730323
   ],
   [
    -3.736887,
    36.730091
   ],
   [
    -3.736692,
    36.729919
   ],
   [
    -3.736538,
    36.729791
   ],
   [
    -3.736431,
    36.729701
   ],
   [
    -3.736326,
    36.729613
   ],
   [
    -3.736276,
    36.729572
   ],
   [
    -3.736163,
    36.729478
   ],
   [
    -3.736075,
    36.72938
   ],
   [
    -3.73605,
    36.729323
   ],
   [
    -3.736041,
    36.729028
   ],
   [
    -3.736039,
    36.72871
   ],
   [
    -3.736001,
    36.728623
   ],
   [
    -3.735825,
    36.728504
   ],
   [
    -3.735448,
    36.728389
   ],
   [
    -3.735261,
    36.728271
   ],
   [
    -3.735115,
    36.728063
   ],
   [
    -3.735036,
    36.727677
   ],
   [
    -3.735025,
    36.727437
   ],
   [
    -3.735108,
    36.727198
   ],
   [
    -3.735216,
    36.727025
   ],
   [
    -3.735314,
    36.726857
   ],
   [
    -3.735294,
    36.726592
   ],
   [
    -3.735193,
    36.726212
   ],
   [
    -3.735135,
    36.725917
   ],
   [
    -3.735111,
    36.725829
   ],
   [
    -3.735043,
    36.725578
   ],
   [
    -3.73502,
    36.725495
   ],
   [
    -3.734959,
    36.725456
   ],
   [
    -3.734905,
    36.725442
   ],
   [
    -3.734838,
    36.725454
   ],
   [
    -3.734814,
    36.725482
   ],
   [
    -3.734789,
    36.725522
   ],
   [
    -3.734783,
    36.725575
   ],
   [
    -3.734869,
    36.725888
   ],
   [
    -3.734877,
    36.725915
   ],
   [
    -3.734851,
    36.726233
   ],
   [
    -3.734631,
    36.726616
   ],
   [
    -3.734528,
    36.726891
   ],
   [
    -3.734444,
    36.727254
   ],
   [
    -3.734319,
    36.727364
   ],
   [
    -3.733841,
    36.727479
   ],
   [
    -3.733763,
    36.727537
   ],
   [
    -3.733757,
    36.72767
   ],
   [
    -3.733797,
    36.727748
   ],
   [
    -3.733824,
    36.727811
   ],
   [
    -3.733902,
    36.728168
   ],
   [
    -3.733948,
    36.728431
   ],
   [
    -3.734027,
    36.728687
   ],
   [
    -3.73399,
    36.728737
   ],
   [
    -3.733921,
    36.728755
   ],
   [
    -3.733566,
    36.728512
   ],
   [
    -3.733501,
    36.728478
   ],
   [
    -3.733255,
    36.72835
   ],
   [
    -3.732971,
    36.72811
   ],
   [
    -3.732895,
    36.728088
   ],
   [
    -3.732818,
    36.728105
   ],
   [
    -3.732698,
    36.728088
   ],
   [
    -3.73251,
    36.728051
   ],
   [
    -3.732407,
    36.728045
   ],
   [
    -3.73229,
    36.72804
   ],
   [
    -3.732131,
    36.728039
   ],
   [
    -3.732002,
    36.728029
   ],
   [
    -3.731971,
    36.728027
   ],
   [
    -3.731867,
    36.728091
   ],
   [
    -3.731648,
    36.72811
   ],
   [
    -3.731184,
    36.72811
   ],
   [
    -3.731103,
    36.728061
   ],
   [
    -3.731017,
    36.727928
   ],
   [
    -3.730918,
    36.727876
   ],
   [
    -3.730837,
    36.727805
   ],
   [
    -3.73067,
    36.727619
   ],
   [
    -3.730621,
    36.727477
   ],
   [
    -3.730616,
    36.727255
   ],
   [
    -3.730716,
    36.727001
   ],
   [
    -3.730933,
    36.726508
   ],
   [
    -3.731037,
    36.726209
   ],
   [
    -3.730748,
    36.725739
   ],
   [
    -3.730639,
    36.725563
   ],
   [
    -3.730815,
    36.724883
   ],
   [
    -3.730902,
    36.724597
   ],
   [
    -3.730962,
    36.724524
   ],
   [
    -3.731054,
    36.724473
   ],
   [
    -3.73115,
    36.724429
   ],
   [
    -3.73123,
    36.724359
   ],
   [
    -3.731237,
    36.724268
   ],
   [
    -3.731149,
    36.724062
   ],
   [
    -3.730997,
    36.723896
   ],
   [
    -3.730899,
    36.723651
   ],
   [
    -3.73087,
    36.723424
   ],
   [
    -3.730788,
    36.723358
   ],
   [
    -3.730699,
    36.723371
   ],
   [
    -3.730656,
    36.723392
   ],
   [
    -3.73063,
    36.723438
   ],
   [
    -3.730641,
    36.723548
   ],
   [
    -3.73067,
    36.72371
   ],
   [
    -3.730795,
    36.724008
   ],
   [
    -3.730805,
    36.724086
   ],
   [
    -3.730759,
    36.724184
   ],
   [
    -3.730358,
    36.724285
   ],
   [
    -3.730073,
    36.724368
   ],
   [
    -3.729834,
    36.724486
   ],
   [
    -3.729456,
    36.725153
   ],
   [
    -3.728893,
    36.7257
   ],
   [
    -3.728835,
    36.725747
   ],
   [
    -3.728732,
    36.725793
   ],
   [
    -3.728424,
    36.725919
   ],
   [
    -3.728352,
    36.725985
   ],
   [
    -3.728326,
    36.726052
   ],
   [
    -3.728298,
    36.726259
   ],
   [
    -3.728305,
    36.726376
   ],
   [
    -3.728306,
    36.726482
   ],
   [
    -3.728268,
    36.726529
   ],
   [
    -3.728206,
    36.726554
   ],
   [
    -3.728128,
    36.726549
   ],
   [
    -3.728085,
    36.726514
   ],
   [
    -3.728059,
    36.726461
   ],
   [
    -3.728055,
    36.726256
   ],
   [
    -3.728037,
    36.726113
   ],
   [
    -3.727986,
    36.725992
   ],
   [
    -3.727922,
    36.725908
   ],
   [
    -3.727802,
    36.725773
   ],
   [
    -3.727597,
    36.725597
   ],
   [
    -3.727477,
    36.725437
   ],
   [
    -3.727424,
    36.725337
   ],
   [
    -3.727374,
    36.725209
   ],
   [
    -3.727348,
    36.725081
   ],
   [
    -3.727353,
    36.724968
   ],
   [
    -3.727373,
    36.724867
   ],
   [
    -3.727509,
    36.724596
   ],
   [
    -3.727514,
    36.724535
   ],
   [
    -3.727494,
    36.724472
   ],
   [
    -3.727372,
    36.724309
   ],
   [
    -3.727334,
    36.724254
   ],
   [
    -3.72726,
    36.724143
   ],
   [
    -3.727178,
    36.7241
   ],
   [
    -3.72726,
    36.724143
   ],
   [
    -3.727334,
    36.724254
   ],
   [
    -3.727372,
    36.724309
   ],
   [
    -3.727494,
    36.724472
   ],
   [
    -3.727514,
    36.724535
   ],
   [
    -3.727509,
    36.724596
   ],
   [
    -3.727373,
    36.724867
   ],
   [
    -3.727353,
    36.724968
   ],
   [
    -3.727348,
    36.725081
   ],
   [
    -3.727374,
    36.725209
   ],
   [
    -3.727424,
    36.725337
   ],
   [
    -3.727477,
    36.725437
   ],
   [
    -3.727597,
    36.725597
   ],
   [
    -3.727802,
    36.725773
   ],
   [
    -3.727922,
    36.725908
   ],
   [
    -3.727986,
    36.725992
   ],
   [
    -3.728037,
    36.726113
   ],
   [
    -3.728055,
    36.726256
   ],
   [
    -3.728059,
    36.726461
   ],
   [
    -3.728085,
    36.726514
   ],
   [
    -3.728128,
    36.726549
   ],
   [
    -3.728206,
    36.726554
   ],
   [
    -3.728268,
    36.726529
   ],
   [
    -3.728306,
    36.726482
   ],
   [
    -3.728305,
    36.726376
   ],
   [
    -3.728298,
    36.726259
   ],
   [
    -3.728326,
    36.726052
   ],
   [
    -3.728352,
    36.725985
   ],
   [
    -3.728424,
    36.725919
   ],
   [
    -3.728732,
    36.725793
   ],
   [
    -3.728835,
    36.725747
   ],
   [
    -3.728893,
    36.7257
   ],
   [
    -3.729456,
    36.725153
   ],
   [
    -3.729834,
    36.724486
   ],
   [
    -3.730073,
    36.724368
   ],
   [
    -3.730358,
    36.724285
   ],
   [
    -3.730759,
    36.724184
   ],
   [
    -3.730805,
    36.724086
   ],
   [
    -3.730795,
    36.724008
   ],
   [
    -3.73067,
    36.72371
   ],
   [
    -3.730641,
    36.723548
   ],
   [
    -3.73063,
    36.723438
   ],
   [
    -3.730656,
    36.723392
   ],
   [
    -3.730699,
    36.723371
   ],
   [
    -3.730788,
    36.723358
   ],
   [
    -3.73087,
    36.723424
   ],
   [
    -3.730899,
    36.723651
   ],
   [
    -3.730997,
    36.723896
   ],
   [
    -3.731149,
    36.724062
   ],
   [
    -3.731237,
    36.724268
   ],
   [
    -3.73123,
    36.724359
   ],
   [
    -3.73115,
    36.724429
   ],
   [
    -3.731054,
    36.724473
   ],
   [
    -3.730962,
    36.724524
   ],
   [
    -3.730902,
    36.724597
   ],
   [
    -3.730815,
    36.724883
   ],
   [
    -3.730639,
    36.725563
   ],
   [
    -3.730748,
    36.725739
   ],
   [
    -3.731037,
    36.726209
   ],
   [
    -3.730933,
    36.726508
   ],
   [
    -3.730716,
    36.727001
   ],
   [
    -3.730616,
    36.727255
   ],
   [
    -3.730621,
    36.727477
   ],
   [
    -3.73067,
    36.727619
   ],
   [
    -3.730837,
    36.727805
   ],
   [
    -3.730918,
    36.727876
   ],
   [
    -3.731017,
    36.727928
   ],
   [
    -3.731165,
    36.727969
   ],
   [
    -3.731629,
    36.727963
   ],
   [
    -3.731885,
    36.727963
   ],
   [
    -3.731971,
    36.728027
   ],
   [
    -3.732002,
    36.728029
   ],
   [
    -3.732131,
    36.728039
   ],
   [
    -3.73229,
    36.72804
   ],
   [
    -3.732407,
    36.728045
   ],
   [
    -3.73251,
    36.728051
   ],
   [
    -3.732698,
    36.728088
   ],
   [
    -3.732818,
    36.728105
   ],
   [
    -3.732804,
    36.7282
   ],
   [
    -3.733123,
    36.728689
   ],
   [
    -3.733201,
    36.729096
   ],
   [
    -3.733275,
    36.729479
   ],
   [
    -3.733292,
    36.729567
   ],
   [
    -3.733219,
    36.729674
   ],
   [
    -3.733102,
    36.729732
   ],
   [
    -3.732975,
    36.72977
   ],
   [
    -3.732919,
    36.729731
   ],
   [
    -3.732856,
    36.729597
   ],
   [
    -3.732852,
    36.729561
   ],
   [
    -3.732832,
    36.729361
   ],
   [
    -3.732784,
    36.729198
   ],
   [
    -3.7327,
    36.729079
   ],
   [
    -3.732603,
    36.729017
   ],
   [
    -3.732433,
    36.728998
   ],
   [
    -3.732268,
    36.72907
   ],
   [
    -3.731852,
    36.729537
   ],
   [
    -3.731595,
    36.729758
   ],
   [
    -3.731345,
    36.729911
   ],
   [
    -3.731098,
    36.729969
   ],
   [
    -3.73095,
    36.72996
   ],
   [
    -3.730749,
    36.729952
   ],
   [
    -3.730691,
    36.729973
   ],
   [
    -3.730653,
    36.729996
   ],
   [
    -3.730607,
    36.730116
   ],
   [
    -3.730713,
    36.730195
   ],
   [
    -3.731068,
    36.730232
   ],
   [
    -3.731237,
    36.730291
   ],
   [
    -3.731284,
    36.730334
   ],
   [
    -3.731298,
    36.730734
   ],
   [
    -3.731177,
    36.730919
   ],
   [
    -3.730746,
    36.731098
   ],
   [
    -3.730607,
    36.731228
   ],
   [
    -3.730592,
    36.73132
   ],
   [
    -3.730727,
    36.731584
   ],
   [
    -3.730793,
    36.731745
   ],
   [
    -3.73073,
    36.731943
   ],
   [
    -3.730607,
    36.732034
   ],
   [
    -3.730427,
    36.731957
   ],
   [
    -3.730346,
    36.73201
   ],
   [
    -3.730314,
    36.732104
   ],
   [
    -3.730093,
    36.732752
   ],
   [
    -3.730031,
    36.732877
   ],
   [
    -3.72984,
    36.733115
   ],
   [
    -3.72965,
    36.733229
   ],
   [
    -3.729466,
    36.733232
   ],
   [
    -3.729314,
    36.733202
   ],
   [
    -3.728955,
    36.733055
   ],
   [
    -3.728801,
    36.733055
   ],
   [
    -3.728198,
    36.733465
   ],
   [
    -3.727327,
    36.733884
   ],
   [
    -3.727062,
    36.733962
   ],
   [
    -3.72687,
    36.73395
   ],
   [
    -3.72665,
    36.73393
   ],
   [
    -3.726414,
    36.733979
   ],
   [
    -3.726071,
    36.734225
   ],
   [
    -3.725739,
    36.734449
   ],
   [
    -3.725517,
    36.734623
   ],
   [
    -3.725353,
    36.734895
   ],
   [
    -3.725096,
    36.735308
   ],
   [
    -3.724738,
    36.73557
   ],
   [
    -3.724572,
    36.73563
   ],
   [
    -3.724428,
    36.735605
   ],
   [
    -3.724036,
    36.735382
   ],
   [
    -3.723759,
    36.735295
   ],
   [
    -3.723341,
    36.735245
   ],
   [
    -3.722909,
    36.735056
   ],
   [
    -3.722728,
    36.735037
   ],
   [
    -3.722645,
    36.735059
   ],
   [
    -3.722589,
    36.735074
   ],
   [
    -3.722542,
    36.735124
   ],
   [
    -3.722504,
    36.735225
   ],
   [
    -3.722511,
    36.735348
   ],
   [
    -3.722648,
    36.735564
   ],
   [
    -3.722771,
    36.735938
   ],
   [
    -3.722914,
    36.736197
   ],
   [
    -3.723708,
    36.737012
   ],
   [
    -3.72377,
    36.737163
   ],
   [
    -3.723698,
    36.737305
   ],
   [
    -3.723516,
    36.737398
   ],
   [
    -3.723239,
    36.73751
   ],
   [
    -3.723041,
    36.737625
   ],
   [
    -3.722974,
    36.737655
   ],
   [
    -3.72289,
    36.737673
   ],
   [
    -3.722753,
    36.737664
   ],
   [
    -3.722661,
    36.737664
   ],
   [
    -3.722056,
    36.73775
   ],
   [
    -3.721855,
    36.737803
   ],
   [
    -3.721791,
    36.737832
   ],
   [
    -3.721723,
    36.737887
   ],
   [
    -3.721676,
    36.737946
   ],
   [
    -3.721655,
    36.738017
   ],
   [
    -3.721663,
    36.738094
   ],
   [
    -3.72169,
    36.738163
   ],
   [
    -3.721733,
    36.73823
   ],
   [
    -3.721847,
    36.738326
   ],
   [
    -3.721919,
    36.738389
   ],
   [
    -3.721955,
    36.73845
   ],
   [
    -3.72196,
    36.738513
   ],
   [
    -3.721944,
    36.738563
   ],
   [
    -3.721903,
    36.738614
   ],
   [
    -3.721806,
    36.738682
   ],
   [
    -3.7217,
    36.738743
   ],
   [
    -3.721515,
    36.738831
   ],
   [
    -3.721446,
    36.738845
   ],
   [
    -3.721367,
    36.738835
   ],
   [
    -3.721275,
    36.738798
   ],
   [
    -3.72117,
    36.73873
   ],
   [
    -3.720828,
    36.738403
   ],
   [
    -3.720761,
    36.738335
   ],
   [
    -3.720681,
    36.738219
   ],
   [
    -3.720624,
    36.738094
   ],
   [
    -3.720533,
    36.737805
   ],
   [
    -3.720528,
    36.737779
   ],
   [
    -3.720429,
    36.737446
   ],
   [
    -3.720361,
    36.737285
   ],
   [
    -3.720272,
    36.737145
   ],
   [
    -3.720184,
    36.737027
   ],
   [
    -3.720079,
    36.736909
   ],
   [
    -3.72,
    36.736857
   ],
   [
    -3.719883,
    36.736814
   ],
   [
    -3.719747,
    36.736779
   ],
   [
    -3.719559,
    36.736746
   ],
   [
    -3.719398,
    36.736737
   ],
   [
    -3.719257,
    36.736756
   ],
   [
    -3.719179,
    36.736779
   ],
   [
    -3.71913,
    36.736814
   ],
   [
    -3.719087,
    36.736871
   ],
   [
    -3.719069,
    36.736927
   ],
   [
    -3.719026,
    36.737091
   ],
   [
    -3.718986,
    36.737143
   ],
   [
    -3.718921,
    36.737184
   ],
   [
    -3.718782,
    36.737247
   ],
   [
    -3.718528,
    36.737314
   ],
   [
    -3.71844,
    36.73732
   ],
   [
    -3.718344,
    36.737294
   ],
   [
    -3.718252,
    36.737195
   ],
   [
    -3.718168,
    36.737049
   ],
   [
    -3.718062,
    36.736912
   ],
   [
    -3.718075,
    36.736833
   ],
   [
    -3.718103,
    36.736786
   ],
   [
    -3.717983,
    36.736782
   ],
   [
    -3.717855,
    36.736769
   ],
   [
    -3.717731,
    36.736743
   ],
   [
    -3.71757,
    36.736698
   ],
   [
    -3.717436,
    36.736635
   ],
   [
    -3.71728,
    36.736534
   ],
   [
    -3.717151,
    36.73643
   ],
   [
    -3.717028,
    36.736291
   ],
   [
    -3.716743,
    36.735842
   ],
   [
    -3.716633,
    36.735704
   ],
   [
    -3.716512,
    36.735579
   ],
   [
    -3.716422,
    36.735514
   ],
   [
    -3.716272,
    36.735427
   ],
   [
    -3.716139,
    36.735368
   ],
   [
    -3.71596,
    36.735323
   ],
   [
    -3.715799,
    36.735302
   ],
   [
    -3.715625,
    36.735306
   ],
   [
    -3.715459,
    36.735341
   ],
   [
    -3.715361,
    36.735372
   ],
   [
    -3.715176,
    36.735463
   ],
   [
    -3.715048,
    36.735556
   ],
   [
    -3.714956,
    36.735658
   ],
   [
    -3.714874,
    36.735778
   ],
   [
    -3.714826,
    36.735916
   ],
   [
    -3.7148,
    36.736056
   ],
   [
    -3.714808,
    36.736212
   ],
   [
    -3.714874,
    36.736773
   ],
   [
    -3.714875,
    36.736825
   ],
   [
    -3.714878,
    36.736945
   ],
   [
    -3.714857,
    36.737108
   ],
   [
    -3.71481,
    36.737259
   ],
   [
    -3.714752,
    36.737399
   ],
   [
    -3.71467,
    36.737531
   ],
   [
    -3.714559,
    36.737668
   ],
   [
    -3.714439,
    36.737773
   ],
   [
    -3.714331,
    36.73786
   ],
   [
    -3.714107,
    36.737995
   ],
   [
    -3.713916,
    36.738065
   ],
   [
    -3.713759,
    36.73811
   ],
   [
    -3.713611,
    36.738142
   ],
   [
    -3.713364,
    36.738166
   ],
   [
    -3.713142,
    36.738159
   ],
   [
    -3.712939,
    36.73813
   ],
   [
    -3.712741,
    36.738075
   ],
   [
    -3.712546,
    36.738002
   ],
   [
    -3.712405,
    36.737925
   ],
   [
    -3.712272,
    36.737842
   ],
   [
    -3.711923,
    36.737608
   ],
   [
    -3.711561,
    36.737361
   ],
   [
    -3.711467,
    36.737293
   ],
   [
    -3.7105,
    36.736634
   ],
   [
    -3.710309,
    36.736532
   ],
   [
    -3.710207,
    36.736488
   ],
   [
    -3.710015,
    36.736433
   ],
   [
    -3.709799,
    36.7364
   ],
   [
    -3.709586,
    36.736398
   ],
   [
    -3.709344,
    36.736443
   ],
   [
    -3.70914,
    36.736516
   ],
   [
    -3.708982,
    36.736613
   ],
   [
    -3.708862,
    36.736712
   ],
   [
    -3.708753,
    36.736841
   ],
   [
    -3.708676,
    36.736995
   ],
   [
    -3.708629,
    36.737096
   ],
   [
    -3.708373,
    36.737732
   ],
   [
    -3.708255,
    36.738025
   ],
   [
    -3.70822,
    36.738098
   ],
   [
    -3.708183,
    36.738168
   ],
   [
    -3.708104,
    36.738309
   ],
   [
    -3.708017,
    36.738417
   ],
   [
    -3.707893,
    36.73852
   ],
   [
    -3.70748,
    36.738737
   ],
   [
    -3.70731,
    36.738854
   ],
   [
    -3.706627,
    36.739459
   ],
   [
    -3.70648,
    36.739649
   ],
   [
    -3.706396,
    36.739845
   ],
   [
    -3.706362,
    36.74002
   ],
   [
    -3.706382,
    36.740323
   ],
   [
    -3.70638,
    36.740451
   ],
   [
    -3.706353,
    36.740569
   ],
   [
    -3.706307,
    36.740664
   ],
   [
    -3.706242,
    36.740747
   ],
   [
    -3.706166,
    36.740819
   ],
   [
    -3.706068,
    36.740884
   ],
   [
    -3.705945,
    36.740941
   ],
   [
    -3.705821,
    36.740976
   ],
   [
    -3.705682,
    36.740989
   ],
   [
    -3.70552,
    36.740971
   ],
   [
    -3.705387,
    36.740919
   ],
   [
    -3.705258,
    36.740836
   ],
   [
    -3.704259,
    36.740079
   ],
   [
    -3.704108,
    36.739977
   ],
   [
    -3.703934,
    36.739885
   ],
   [
    -3.703749,
    36.739817
   ],
   [
    -3.703531,
    36.739764
   ],
   [
    -3.703311,
    36.739743
   ],
   [
    -3.703062,
    36.739753
   ],
   [
    -3.702773,
    36.739807
   ],
   [
    -3.702484,
    36.739906
   ],
   [
    -3.701933,
    36.74014
   ],
   [
    -3.701743,
    36.740203
   ],
   [
    -3.701571,
    36.740237
   ],
   [
    -3.701393,
    36.740251
   ],
   [
    -3.701191,
    36.740229
   ],
   [
    -3.700683,
    36.740126
   ],
   [
    -3.700463,
    36.740099
   ],
   [
    -3.70025,
    36.740091
   ],
   [
    -3.700004,
    36.740102
   ],
   [
    -3.699742,
    36.740128
   ],
   [
    -3.699364,
    36.740201
   ],
   [
    -3.699224,
    36.740229
   ],
   [
    -3.699042,
    36.740257
   ],
   [
    -3.698934,
    36.740266
   ],
   [
    -3.698874,
    36.740271
   ],
   [
    -3.698824,
    36.740272
   ],
   [
    -3.698654,
    36.740276
   ],
   [
    -3.698509,
    36.740267
   ],
   [
    -3.698435,
    36.740263
   ],
   [
    -3.698438,
    36.740222
   ],
   [
    -3.698438,
    36.740075
   ],
   [
    -3.698432,
    36.739898
   ],
   [
    -3.69839,
    36.739713
   ],
   [
    -3.698367,
    36.739631
   ],
   [
    -3.698281,
    36.739401
   ],
   [
    -3.69821,
    36.73926
   ],
   [
    -3.698146,
    36.739175
   ],
   [
    -3.698078,
    36.739112
   ],
   [
    -3.697909,
    36.738997
   ],
   [
    -3.697854,
    36.738967
   ],
   [
    -3.697358,
    36.738701
   ],
   [
    -3.696017,
    36.737999
   ],
   [
    -3.69581,
    36.737898
   ],
   [
    -3.695725,
    36.737856
   ],
   [
    -3.69534,
    36.737667
   ],
   [
    -3.69526,
    36.737625
   ],
   [
    -3.695097,
    36.73754
   ],
   [
    -3.694934,
    36.737455
   ],
   [
    -3.694763,
    36.737365
   ],
   [
    -3.694523,
    36.73724
   ],
   [
    -3.694519,
    36.737237
   ],
   [
    -3.694465,
    36.737209
   ],
   [
    -3.694111,
    36.737021
   ],
   [
    -3.693749,
    36.736834
   ],
   [
    -3.693268,
    36.736589
   ],
   [
    -3.693016,
    36.736453
   ],
   [
    -3.692744,
    36.736302
   ],
   [
    -3.692726,
    36.736291
   ],
   [
    -3.692617,
    36.736235
   ],
   [
    -3.692604,
    36.736228
   ],
   [
    -3.692572,
    36.736199
   ],
   [
    -3.692347,
    36.736083
   ],
   [
    -3.692119,
    36.73597
   ],
   [
    -3.69207,
    36.735943
   ],
   [
    -3.691892,
    36.735863
   ],
   [
    -3.691845,
    36.735841
   ],
   [
    -3.691801,
    36.735816
   ],
   [
    -3.691678,
    36.735754
   ],
   [
    -3.691448,
    36.735637
   ],
   [
    -3.691223,
    36.735525
   ],
   [
    -3.691157,
    36.735481
   ],
   [
    -3.691104,
    36.73544
   ],
   [
    -3.690964,
    36.73544
   ],
   [
    -3.690889,
    36.735481
   ],
   [
    -3.690583,
    36.735779
   ],
   [
    -3.690517,
    36.735835
   ],
   [
    -3.690459,
    36.735855
   ],
   [
    -3.690355,
    36.735862
   ],
   [
    -3.690309,
    36.735865
   ],
   [
    -3.690251,
    36.735902
   ],
   [
    -3.690196,
    36.735884
   ]
  ]
 }
}
