{
 "type": "Feature",
 "properties": {
  "shape_id": "ALM_3A_CIRC",
  "osm_relation": 11186061,
  "attribution": "© OpenStreetMap contributors, ODbL"
 },
 "geometry": {
  "type": "LineString",
  "coordinates": [
   [
    -3.690196,
    36.735884
   ],
   [
    -3.690137,
    36.735887
   ],
   [
    -3.690112,
    36.735846
   ],
   [
    -3.689961,
    36.735807
   ],
   [
    -3.689949,
    36.735804
   ],
   [
    -3.689854,
    36.735775
   ],
   [
    -3.68969,
    36.735708
   ],
   [
    -3.689651,
    36.735692
   ],
   [
    -3.689551,
    36.735639
   ],
   [
    -3.689472,
    36.73562
   ],
   [
    -3.689416,
    36.735638
   ],
   [
    -3.689359,
    36.735679
   ],
   [
    -3.689243,
    36.735766
   ],
   [
    -3.689052,
    36.735696
   ],
   [
    -3.688906,
    36.735626
   ],
   [
    -3.688791,
    36.735555
   ],
   [
    -3.688701,
    36.735479
   ],
   [
    -3.688618,
    36.735376
   ],
   [
    -3.688559,
    36.73528
   ],
   [
    -3.688522,
    36.735178
   ],
   [
    -3.688515,
    36.735127
   ],
   [
    -3.688508,
    36.735075
   ],
   [
    -3.688506,
    36.735023
   ],
   [
    -3.688563,
    36.734825
   ],
   [
    -3.688641,
    36.734516
   ],
   [
    -3.688648,
    36.734423
   ],
   [
    -3.688616,
    36.734319
   ],
   [
    -3.688558,
    36.73425
   ],
   [
    -3.688416,
    36.734049
   ],
   [
    -3.688376,
    36.734
   ],
   [
    -3.688235,
    36.733832
   ],
   [
    -3.688181,
    36.73376
   ],
   [
    -3.688007,
    36.733537
   ],
   [
    -3.687867,
    36.733373
   ],
   [
    -3.687767,
    36.733248
   ],
   [
    -3.687646,
    36.733089
   ],
   [
    -3.6876,
    36.733025
   ],
   [
    -3.687543,
    36.732956
   ],
   [
    -3.687488,
    36.732892
   ],
   [
    -3.687497,
    36.732832
   ],
   [
    -3.687489,
    36.732787
   ],
   [
    -3.687516,
    36.732782
   ],
   [
    -3.687563,
    36.732761
   ],
   [
    -3.687598,
    36.732729
   ],
   [
    -3.687618,
    36.732685
   ],
   [
    -3.687619,
    36.732644
   ],
   [
    -3.687602,
    36.732603
   ],
   [
    -3.687568,
    36.732569
   ],
   [
    -3.687522,
    36.732547
   ],
   [
    -3.687461,
    36.732541
   ],
   [
    -3.687409,
    36.732546
   ],
   [
    -3.687386,
    36.732555
   ],
   [
    -3.687358,
    36.732511
   ],
   [
    -3.68733,
    36.732468
   ],
   [
    -3.68731,
    36.732329
   ],
   [
    -3.687304,
    36.73206
   ],
   [
    -3.687286,
    36.731739
   ],
   [
    -3.687254,
    36.731245
   ],
   [
    -3.687253,
    36.731223
   ],
   [
    -3.687298,
    36.731171
   ],
   [
    -3.687305,
    36.731147
   ],
   [
    -3.687319,
    36.731134
   ],
   [
    -3.687327,
    36.731121
   ],
   [
    -3.68733,
    36.731107
   ],
   [
    -3.68733,
    36.731095
   ],
   [
    -3.687326,
    36.731083
   ],
   [
    -3.68732,
    36.731073
   ],
   [
    -3.687312,
    36.731064
   ],
   [
    -3.687302,
    36.731056
   ],
   [
    -3.687291,
    36.73105
   ],
   [
    -3.687268,
    36.731044
   ],
   [
    -3.687249,
    36.731044
   ],
   [
    -3.687231,
    36.731048
   ],
   [
    -3.687196,
    36.731038
   ],
   [
    -3.68706,
    36.731036
   ],
   [
    -3.68702,
    36.731045
   ],
   [
    -3.686996,
    36.731044
   ],
   [
    -3.686694,
    36.731034
   ],
   [
    -3.686615,
    36.731032
   ],
   [
    -3.686487,
    36.731028
   ],
   [
    -3.686231,
    36.73102
   ],
   [
    -3.686157,
    36.731017
   ],
   [
    -3.686091,
    36.731015
   ],
   [
    -3.686003,
    36.731012
   ],
   [
    -3.685581,
    36.730996
   ],
   [
    -3.685373,
    36.730992
   ],
   [
    -3.685162,
    36.730988
   ],
   [
    -3.684869,
    36.730995
   ],
   [
    -3.684466,
    36.731006
   ],
   [
    -3.683929,
    36.731021
   ],
   [
    -3.683717,
    36.731028
   ],
   [
    -3.683598,
    36.731033
   ],
   [
    -3.683379,
    36.731036
   ],
   [
    -3.683119,
    36.731032
   ],
   [
    -3.682901,
    36.731016
   ],
   [
    -3.682702,
    36.730997
   ],
   [
    -3.68245,
    36.730955
   ],
   [
    -3.682009,
    36.730854
   ],
   [
    -3.681552,
    36.730704
   ],
   [
    -3.680834,
    36.730455
   ],
   [
    -3.680187,
    36.730285
   ],
   [
    -3.679736,
    36.730171
   ],
   [
    -3.679476,
    36.730108
   ],
   [
    -3.67913,
    36.730079
   ],
   [
    -3.678871,
    36.730065
   ],
   [
    -3.678828,
    36.730063
   ],
   [
    -3.678146,
    36.730031
   ],
   [
    -3.677979,
    36.730036
   ],
   [
    -3.677933,
    36.730037
   ],
   [
    -3.677757,
    36.730069
   ],
   [
    -3.677573,
    36.730125
   ],
   [
    -3.677429,
    36.730182
   ],
   [
    -3.677147,
    36.730312
   ],
   [
    -3.676942,
    36.730424
   ],
   [
    -3.676649,
    36.730595
   ],
   [
    -3.676313,
    36.730791
   ],
   [
    -3.675947,
    36.730993
   ],
   [
    -3.67531,
    36.73135
   ],
   [
    -3.674906,
    36.731619
   ],
   [
    -3.674202,
    36.732087
   ],
   [
    -3.674089,
    36.732164
   ],
   [
    -3.673612,
    36.732489
   ],
   [
    -3.673549,
    36.732544
   ],
   [
    -3.673484,
    36.732618
   ],
   [
    -3.673429,
    36.732709
   ],
   [
    -3.673394,
    36.732789
   ],
   [
    -3.673368,
    36.732877
   ],
   [
    -3.673356,
    36.732958
   ],
   [
    -3.673357,
    36.733043
   ],
   [
    -3.673367,
    36.733117
   ],
   [
    -3.673376,
    36.733148
   ],
   [
    -3.673431,
    36.73332
   ],
   [
    -3.673439,
    36.733443
   ],
   [
    -3.673412,
    36.733591
   ],
   [
    -3.673354,
    36.733705
   ],
   [
    -3.673141,
    36.733978
   ],
   [
    -3.67304,
    36.734073
   ],
   [
    -3.67292,
    36.734195
   ],
   [
    -3.672864,
    36.734266
   ],
   [
    -3.672701,
    36.7345
   ],
   [
    -3.672677,
    36.734535
   ],
   [
    -3.672637,
    36.7346
   ],
   [
    -3.672608,
    36.734727
   ],
   [
    -3.672581,
    36.7348
   ],
   [
    -3.672552,
    36.734839
   ],
   [
    -3.672211,
    36.7353
   ],
   [
    -3.672162,
    36.735375
   ],
   [
    -3.671788,
    36.735795
   ],
   [
    -3.671478,
    36.736154
   ],
   [
    -3.671421,
    36.736201
   ],
   [
    -3.671372,
    36.736247
   ],
   [
    -3.671273,
    36.736316
   ],
   [
    -3.671224,
    36.736377
   ],
   [
    -3.67114,
    36.736484
   ],
   [
    -3.671018,
    36.736616
   ],
   [
    -3.670965,
    36.736698
   ],
   [
    -3.670904,
    36.736825
   ],
   [
    -3.670769,
    36.73696
   ],
   [
    -3.670593,
    36.737125
   ],
   [
    -3.670213,
    36.737457
   ],
   [
    -3.669791,
    36.737818
   ],
   [
    -3.669606,
    36.737983
   ],
   [
    -3.669485,
    36.738114
   ],
   [
    -3.669228,
    36.738403
   ],
   [
    -3.669048,
    36.73861
   ],
   [
    -3.668895,
    36.738796
   ],
   [
    -3.668753,
    36.738979
   ],
   [
    -3.668658,
    36.739107
   ],
   [
    -3.668652,
    36.739116
   ],
   [
    -3.668328,
    36.739586
   ],
   [
    -3.66819,
    36.739781
   ],
   [
    -3.668006,
    36.740049
   ],
   [
    -3.667978,
    36.740082
   ],
   [
    -3.667816,
    36.740283
   ],
   [
    -3.667712,
    36.740396
   ],
   [
    -3.667598,
    36.740509
   ],
   [
    -3.667457,
    36.740635
   ],
   [
    -3.667079,
    36.740961
   ],
   [
    -3.666839,
    36.741167
   ],
   [
    -3.666188,
    36.741736
   ],
   [
    -3.665849,
    36.742029
   ],
   [
    -3.665709,
    36.742149
   ],
   [
    -3.665423,
    36.742394
   ],
   [
    -3.66512,
    36.742657
   ],
   [
    -3.664941,
    36.742812
   ],
   [
    -3.664744,
    36.742962
   ],
   [
    -3.664708,
    36.742985
   ],
   [
    -3.664572,
    36.743043
   ],
   [
    -3.664544,
    36.743058
   ],
   [
    -3.664152,
    36.743284
   ],
   [
    -3.663886,
    36.743431
   ],
   [
    -3.663843,
    36.743462
   ],
   [
    -3.663797,
    36.743511
   ],
   [
    -3.663758,
    36.743569
   ],
   [
    -3.663728,
    36.743656
   ],
   [
    -3.66372,
    36.743732
   ],
   [
    -3.663718,
    36.743835
   ],
   [
    -3.663715,
    36.743907
   ],
   [
    -3.663709,
    36.744065
   ],
   [
    -3.663685,
    36.744144
   ],
   [
    -3.663651,
    36.744201
   ],
   [
    -3.663606,
    36.744255
   ],
   [
    -3.663519,
    36.744341
   ],
   [
    -3.663393,
    36.744473
   ],
   [
    -3.663174,
    36.744605
   ],
   [
    -3.663018,
    36.744704
   ],
   [
    -3.662938,
    36.744763
   ],
   [
    -3.662891,
    36.744811
   ],
   [
    -3.662854,
    36.744859
   ],
   [
    -3.662806,
    36.74494
   ],
   [
    -3.662611,
    36.745295
   ],
   [
    -3.662442,
    36.745581
   ],
   [
    -3.662404,
    36.745623
   ],
   [
    -3.662355,
    36.745656
   ],
   [
    -3.662285,
    36.745685
   ],
   [
    -3.662036,
    36.745754
   ],
   [
    -3.661932,
    36.745786
   ],
   [
    -3.661881,
    36.745826
   ],
   [
    -3.661974,
    36.745989
   ],
   [
    -3.661984,
    36.746007
   ],
   [
    -3.662129,
    36.746272
   ],
   [
    -3.662169,
    36.746351
   ],
   [
    -3.662266,
    36.746504
   ],
   [
    -3.66206,
    36.746739
   ],
   [
    -3.661868,
    36.746883
   ],
   [
    -3.661522,
    36.747132
   ],
   [
    -3.661356,
    36.747286
   ],
   [
    -3.661248,
    36.747434
   ],
   [
    -3.661141,
    36.747585
   ],
   [
    -3.661017,
    36.747706
   ],
   [
    -3.660783,
    36.747874
   ],
   [
    -3.660639,
    36.747955
   ],
   [
    -3.660524,
    36.74801
   ],
   [
    -3.660353,
    36.748096
   ],
   [
    -3.660186,
    36.748217
   ],
   [
    -3.660046,
    36.748353
   ],
   [
    -3.659932,
    36.74851
   ],
   [
    -3.659828,
    36.748719
   ],
   [
    -3.659794,
    36.748856
   ],
   [
    -3.659765,
    36.748991
   ],
   [
    -3.659712,
    36.749063
   ],
   [
    -3.659629,
    36.749118
   ],
   [
    -3.659564,
    36.749143
   ],
   [
    -3.659456,
    36.749156
   ],
   [
    -3.659297,
    36.749128
   ],
   [
    -3.659175,
    36.74909
   ],
   [
    -3.659069,
    36.749028
   ],
   [
    -3.658832,
    36.748877
   ],
   [
    -3.658712,
    36.748823
   ],
   [
    -3.658589,
    36.748794
   ],
   [
    -3.658518,
    36.748789
   ],
   [
    -3.658356,
    36.748801
   ],
   [
    -3.658157,
    36.74887
   ],
   [
    -3.658063,
    36.748937
   ],
   [
    -3.657996,
    36.749005
   ],
   [
    -3.657367,
    36.749606
   ],
   [
    -3.657295,
    36.749702
   ],
   [
    -3.657258,
    36.749768
   ],
   [
    -3.65723,
    36.749829
   ],
   [
    -3.657147,
    36.749871
   ],
   [
    -3.657078,
    36.749885
   ],
   [
    -3.656992,
    36.749886
   ],
   [
    -3.656938,
    36.74988
   ],
   [
    -3.6569,
    36.74985
   ],
   [
    -3.656847,
    36.749826
   ],
   [
    -3.656776,
    36.749814
   ],
   [
    -3.656726,
    36.749817
   ],
   [
    -3.65667,
    36.749834
   ],
   [
    -3.656624,
    36.74986
   ],
   [
    -3.656583,
    36.749904
   ],
   [
    -3.656571,
    36.749926
   ],
   [
    -3.656563,
    36.749949
   ],
   [
    -3.656558,
    36.749983
   ],
   [
    -3.656562,
    36.750017
   ],
   [
    -3.656582,
    36.750062
   ],
   [
    -3.656624,
    36.750107
   ],
   [
    -3.656676,
    36.750135
   ],
   [
    -3.656739,
    36.750151
   ],
   [
    -3.656812,
    36.750149
   ],
   [
    -3.656862,
    36.750136
   ],
   [
    -3.656905,
    36.750114
   ],
   [
    -3.656945,
    36.750078
   ],
   [
    -3.656975,
    36.750026
   ],
   [
    -3.656981,
    36.749987
   ],
   [
    -3.656977,
    36.749948
   ],
   [
    -3.656962,
    36.749912
   ],
   [
    -3.656938,
    36.74988
   ],
   [
    -3.656992,
    36.749886
   ],
   [
    -3.657078,
    36.749885
   ],
   [
    -3.657147,
    36.749871
   ],
   [
    -3.65723,
    36.749829
   ],
   [
    -3.657258,
    36.749768
   ],
   [
    -3.657295,
    36.749702
   ],
   [
    -3.657367,
    36.749606
   ],
   [
    -3.657996,
    36.749005
   ],
   [
    -3.658063,
    36.748937
   ],
   [
    -3.658157,
    36.74887
   ],
   [
    -3.658356,
    36.748801
   ],
   [
    -3.658358,
    36.749048
   ],
   [
    -3.65845,
    36.749303
   ],
   [
    -3.658239,
    36.749575
   ],
   [
    -3.658136,
    36.749778
   ],
   [
    -3.658135,
    36.750143
   ],
   [
    -3.658213,
    36.750522
   ],
   [
    -3.658308,
    36.750571
   ],
   [
    -3.658253,
    36.750999
   ],
   [
    -3.658218,
    36.75121
   ],
   [
    -3.658197,
    36.751304
   ],
   [
    -3.658172,
    36.751368
   ],
   [
    -3.658097,
    36.751507
   ],
   [
    -3.658017,
    36.751629
   ],
   [
    -3.657879,
    36.751791
   ],
   [
    -3.657608,
    36.751878
   ],
   [
    -3.657411,
    36.75215
   ],
   [
    -3.657347,
    36.752234
   ],
   [
    -3.657133,
    36.752434
   ],
   [
    -3.656822,
    36.752709
   ],
   [
    -3.656816,
    36.752782
   ],
   [
    -3.656562,
    36.752957
   ],
   [
    -3.656368,
    36.753087
   ],
   [
    -3.656175,
    36.753216
   ],
   [
    -3.655916,
    36.753449
   ],
   [
    -3.655803,
    36.753572
   ],
   [
    -3.655717,
    36.753653
   ],
   [
    -3.655663,
    36.753726
   ],
   [
    -3.655465,
    36.753998
   ],
   [
    -3.655234,
    36.754336
   ],
   [
    -3.655047,
    36.75455
   ],
   [
    -3.654979,
    36.754634
   ],
   [
    -3.654688,
    36.75488
   ],
   [
    -3.654436,
    36.75503
   ],
   [
    -3.654252,
    36.755094
   ],
   [
    -3.654037,
    36.755153
   ],
   [
    -3.653888,
    36.755182
   ],
   [
    -3.653811,
    36.75519
   ],
   [
    -3.653685,
    36.755175
   ],
   [
    -3.65353,
    36.755166
   ],
   [
    -3.65334,
    36.755121
   ],
   [
    -3.653264,
    36.755097
   ],
   [
    -3.653218,
    36.755049
   ],
   [
    -3.653146,
    36.755007
   ],
   [
    -3.653061,
    36.754985
   ],
   [
    -3.652971,
    36.754986
   ],
   [
    -3.652884,
    36.75501
   ],
   [
    -3.652811,
    36.755056
   ],
   [
    -3.65276,
    36.755118
   ],
   [
    -3.652737,
    36.75519
   ],
   [
    -3.652741,
    36.755251
   ],
   [
    -3.652765,
    36.755309
   ],
   [
    -3.652808,
    36.75536
   ],
   [
    -3.652858,
    36.755395
   ],
   [
    -3.652916,
    36.75542
   ],
   [
    -3.65299,
    36.755434
   ],
   [
    -3.653066,
    36.755432
   ],
   [
    -3.653139,
    36.755414
   ],
   [
    -3.653203,
    36.75538
   ],
   [
    -3.653249,
    36.755339
   ],
   [
    -3.653282,
    36.755291
   ],
   [
    -3.653357,
    36.755247
   ],
   [
    -3.653475,
    36.755221
   ],
   [
    -3.653674,
    36.755219
   ],
   [
    -3.653811,
    36.75519
   ],
   [
    -3.653888,
    36.755182
   ],
   [
    -3.654037,
    36.755153
   ],
   [
    -3.654252,
    36.755094
   ],
   [
    -3.654436,
    36.75503
   ],
   [
    -3.654609,
    36.754972
   ],
   [
    -3.654834,
    36.754841
   ],
   [
    -3.655037,
    36.754676
   ],
   [
    -3.65524,
    36.754459
   ],
   [
    -3.655435,
    36.754174
   ],
   [
    -3.655485,
    36.754098
   ],
   [
    -3.65575,
    36.753684
   ],
   [
    -3.655803,
    36.753572
   ],
   [
    -3.655916,
    36.753449
   ],
   [
    -3.656175,
    36.753216
   ],
   [
    -3.656368,
    36.753087
   ],
   [
    -3.656562,
    36.752957
   ],
   [
    -3.656816,
    36.752782
   ],
   [
    -3.657041,
    36.752627
   ],
   [
    -3.657117,
    36.752566
   ],
   [
    -3.657294,
    36.752424
   ],
   [
    -3.657446,
    36.752281
   ],
   [
    -3.65784,
    36.751838
   ],
   [
    -3.657879,
    36.751791
   ],
   [
    -3.658017,
    36.751629
   ],
   [
    -3.658097,
    36.751507
   ],
   [
    -3.658172,
    36.751368
   ],
   [
    -3.658197,
    36.751304
   ],
   [
    -3.658218,
    36.75121
   ],
   [
    -3.658253,
    36.750999
   ],
   [
    -3.658308,
    36.750571
   ],
   [
    -3.658341,
    36.750454
   ],
   [
    -3.658393,
    36.750344
   ],
   [
    -3.65847,
    36.75023
   ],
   [
    -3.658585,
    36.750113
   ],
   [
    -3.658715,
    36.750013
   ],
   [
    -3.658864,
    36.749922
   ],
   [
    -3.659041,
    36.749848
   ],
   [
    -3.659278,
    36.749787
   ],
   [
    -3.659431,
    36.749756
   ],
   [
    -3.659766,
    36.749682
   ],
   [
    -3.659979,
    36.749613
   ],
   [
    -3.660086,
    36.749562
   ],
   [
    -3.660171,
    36.749521
   ],
   [
    -3.660328,
    36.749415
   ],
   [
    -3.660637,
    36.749155
   ],
   [
    -3.660789,
    36.749034
   ],
   [
    -3.660986,
    36.748943
   ],
   [
    -3.661077,
    36.748905
   ],
   [
    -3.661139,
    36.748882
   ],
   [
    -3.661193,
    36.748863
   ],
   [
    -3.661351,
    36.748835
   ],
   [
    -3.661532,
    36.74882
   ],
   [
    -3.661696,
    36.748832
   ],
   [
    -3.661845,
    36.748861
   ],
   [
    -3.661989,
    36.74891
   ],
   [
    -3.662306,
    36.749057
   ],
   [
    -3.662575,
    36.749184
   ],
   [
    -3.662739,
    36.749254
   ],
   [
    -3.662901,
    36.749305
   ],
   [
    -3.663045,
    36.749342
   ],
   [
    -3.663205,
    36.749368
   ],
   [
    -3.66325,
    36.749372
   ],
   [
    -3.663294,
    36.749377
   ],
   [
    -3.663331,
    36.74938
   ],
   [
    -3.663347,
    36.749382
   ],
   [
    -3.663362,
    36.749382
   ],
   [
    -3.663513,
    36.749379
   ],
   [
    -3.663715,
    36.749355
   ],
   [
    -3.663954,
    36.749302
   ],
   [
    -3.664591,
    36.749112
   ],
   [
    -3.664891,
    36.748994
   ],
   [
    -3.664975,
    36.748952
   ],
   [
    -3.665009,
    36.748933
   ],
   [
    -3.66509,
    36.748916
   ],
   [
    -3.66519,
    36.748885
   ],
   [
    -3.66525,
    36.748843
   ],
   [
    -3.665303,
    36.748807
   ],
   [
    -3.665391,
    36.748737
   ],
   [
    -3.665473,
    36.748663
   ],
   [
    -3.665613,
    36.748515
   ],
   [
    -3.665641,
    36.748481
   ],
   [
    -3.665671,
    36.748474
   ],
   [
    -3.665703,
    36.748459
   ],
   [
    -3.665728,
    36.748437
   ],
   [
    -3.665744,
    36.74841
   ],
   [
    -3.665751,
    36.748378
   ],
   [
    -3.665744,
    36.748342
   ],
   [
    -3.66576,
    36.748235
   ],
   [
    -3.665757,
    36.748199
   ],
   [
    -3.665749,
    36.748019
   ],
   [
    -3.665748,
    36.747758
   ],
   [
    -3.665744,
    36.74746
   ],
   [
    -3.665746,
    36.747106
   ],
   [
    -3.665752,
    36.746956
   ],
   [
    -3.665767,
    36.746832
   ],
   [
    -3.665801,
    36.746676
   ],
   [
    -3.665876,
    36.746375
   ],
   [
    -3.665922,
    36.746191
   ],
   [
    -3.665961,
    36.746066
   ],
   [
    -3.666044,
    36.745832
   ],
   [
    -3.666153,
    36.745601
   ],
   [
    -3.666261,
    36.745417
   ],
   [
    -3.666376,
    36.745252
   ],
   [
    -3.666571,
    36.745053
   ],
   [
    -3.66679,
    36.744879
   ],
   [
    -3.666989,
    36.744747
   ],
   [
    -3.667152,
    36.744649
   ],
   [
    -3.667291,
    36.744579
   ],
   [
    -3.667429,
    36.744521
   ],
   [
    -3.667569,
    36.744471
   ],
   [
    -3.667736,
    36.744424
   ],
   [
    -3.667905,
    36.744384
   ],
   [
    -3.668063,
    36.744354
   ],
   [
    -3.668234,
    36.74433
   ],
   [
    -3.668414,
    36.744324
   ],
   [
    -3.668583,
    36.744325
   ],
   [
    -3.668821,
    36.74436
   ],
   [
    -3.669026,
    36.744402
   ],
   [
    -3.669251,
    36.744461
   ],
   [
    -3.669348,
    36.744486
   ],
   [
    -3.669674,
    36.744572
   ],
   [
    -3.669837,
    36.744606
   ],
   [
    -3.670011,
    36.74463
   ],
   [
    -3.670084,
    36.744633
   ],
   [
    -3.670238,
    36.744642
   ],
   [
    -3.670467,
    36.744626
   ],
   [
    -3.670696,
    36.744595
   ],
   [
    -3.670905,
    36.744553
   ],
   [
    -3.671184,
    36.744451
   ],
   [
    -3.671394,
    36.744337
   ],
   [
    -3.671701,
    36.744148
   ],
   [
    -3.671991,
    36.743971
   ],
   [
    -3.672454,
    36.743683
   ],
   [
    -3.672541,
    36.743632
   ],
   [
    -3.672804,
    36.74347
   ],
   [
    -3.672992,
    36.743353
   ],
   [
    -3.673602,
    36.743005
   ],
   [
    -3.673967,
    36.74275
   ],
   [
    -3.674169,
    36.742576
   ],
   [
    -3.674554,
    36.742323
   ],
   [
    -3.674984,
    36.742019
   ],
   [
    -3.675086,
    36.741939
   ],
   [
    -3.675231,
    36.741832
   ],
   [
    -3.675528,
    36.741578
   ],
   [
    -3.675614,
    36.741492
   ],
   [
    -3.675788,
    36.741316
   ],
   [
    -3.675932,
    36.741149
   ],
   [
    -3.676075,
    36.740982
   ],
   [
    -3.67624,
    36.740749
   ],
   [
    -3.67634,
    36.740608
   ],
   [
    -3.676578,
    36.740198
   ],
   [
    -3.67682,
    36.739717
   ],
   [
    -3.677115,
    36.739129
   ],
   [
    -3.677244,
    36.738872
   ],
   [
    -3.677311,
    36.738755
   ],
   [
    -3.677444,
    36.738517
   ],
   [
    -3.677665,
    36.738169
   ],
   [
    -3.677818,
    36.737948
   ],
   [
    -3.678018,
    36.737685
   ],
   [
    -3.678056,
    36.737636
   ],
   [
    -3.678401,
    36.737263
   ],
   [
    -3.678603,
    36.73708
   ],
   [
    -3.678908,
    36.736863
   ],
   [
    -3.678971,
    36.736829
   ],
   [
    -3.67903,
    36.736813
   ],
   [
    -3.679079,
    36.736782
   ],
   [
    -3.679112,
    36.736739
   ],
   [
    -3.679203,
    36.736659
   ],
   [
    -3.679313,
    36.736585
   ],
   [
    -3.679489,
    36.736484
   ],
   [
    -3.679739,
    36.736384
   ],
   [
    -3.679997,
    36.736289
   ],
   [
    -3.680248,
    36.736208
   ],
   [
    -3.680473,
    36.73614
   ],
   [
    -3.680744,
    36.736075
   ],
   [
    -3.680976,
    36.736033
   ],
   [
    -3.681215,
    36.735997
   ],
   [
    -3.681548,
    36.735967
   ],
   [
    -3.682004,
    36.735957
   ],
   [
    -3.682224,
    36.735968
   ],
   [
    -3.682482,
    36.735991
   ],
   [
    -3.682788,
    36.73603
   ],
   [
    -3.683025,
    36.736067
   ],
   [
    -3.683316,
    36.736119
   ],
   [
    -3.683567,
    36.736164
   ],
   [
    -3.683698,
    36.736186
   ],
   [
    -3.68379,
    36.736202
   ],
   [
    -3.683947,
    36.736231
   ],
   [
    -3.684043,
    36.736248
   ],
   [
    -3.684121,
    36.736263
   ],
   [
    -3.684177,
    36.736273
   ],
   [
    -3.686434,
    36.736684
   ],
   [
    -3.686501,
    36.736696
   ],
   [
    -3.686605,
    36.736715
   ],
   [
    -3.68684,
    36.736757
   ],
   [
    -3.687737,
    36.736916
   ],
   [
    -3.687976,
    36.737045
   ],
   [
    -3.688023,
    36.737051
   ],
   [
    -3.688032,
    36.737066
   ],
   [
    -3.688069,
    36.737102
   ],
   [
    -3.688118,
    36.737126
   ],
   [
    -3.688175,
    36.737136
   ],
   [
    -3.688248,
    36.737122
   ],
   [
    -3.6883,
    36.737094
   ],
   [
    -3.688324,
    36.737073
   ],
   [
    -3.688347,
    36.737024
   ],
   [
    -3.68835,
    36.736986
   ],
   [
    -3.688337,
    36.736944
   ],
   [
    -3.688306,
    36.736907
   ],
   [
    -3.688264,
    36.73688
   ],
   [
    -3.688212,
    36.736865
   ],
   [
    -3.688215,
    36.73679
   ],
   [
    -3.688273,
    36.736679
   ],
   [
    -3.688387,
    36.736545
   ],
   [
    -3.688486,
    36.736465
   ],
   [
    -3.688575,
    36.736384
   ],
   [
    -3.688713,
    36.736258
   ],
   [
    -3.689027,
    36.735995
   ],
   [
    -3.68909,
    36.735918
   ],
   [
    -3.689243,
    36.735766
   ],
   [
    -3.68952,
    36.735883
   ],
   [
    -3.68981,
    36.736004
   ],
   [
    -3.689931,
    36.736054
   ],
   [
    -3.689986,
    36.736054
   ],
   [
    -3.690062,
    36.736053
   ],
   [
    -3.6901,
    36.736083
   ],
   [
    -3.690152,
    36.7361
   ],
   [
    -3.690209,
    36.736098
   ],
   [
    -3.690259,
    36.736078
   ],
   [
    -3.69028,
    36.736061
   ],
   [
    -3.690306,
    36.736021
   ],
   [
    -3.69031,
    36.735976
   ],
   [
    -3.69029,
    36.735934
   ],
   [
    -3.690251,
    36.735902
   ],
   [
    -3.690196,
    36.735884
   ]
  ]
 }
}
