{
 "type": "Feature",
 "properties": {
  "shape_id": "ALM_1_CIRC",
  "osm_relation": 11185550,
  "attribution": "© OpenStreetMap contributors, ODbL"
 },
 "geometry": {
  "type": "LineString",
  "coordinates": [
   [
    -3.697027,
    36.730781
   ],
   [
    -3.696943,
    36.730728
   ],
   [
    -3.697027,
    36.730781
   ],
   [
    -3.697149,
    36.73086
   ],
   [
    -3.697163,
    36.730871
   ],
   [
    -3.697374,
    36.731009
   ],
   [
    -3.697832,
    36.731309
   ],
   [
    -3.698033,
    36.731441
   ],
   [
    -3.698173,
    36.731534
   ],
   [
    -3.69817,
    36.731558
   ],
   [
    -3.698173,
    36.731582
   ],
   [
    -3.698185,
    36.731605
   ],
   [
    -3.698206,
    36.731628
   ],
   [
    -3.698235,
    36.731644
   ],
   [
    -3.698269,
    36.731653
   ],
   [
    -3.698309,
    36.731654
   ],
   [
    -3.698347,
    36.731644
   ],
   [
    -3.698379,
    36.731624
   ],
   [
    -3.69845,
    36.731675
   ],
   [
    -3.698819,
    36.731921
   ],
   [
    -3.69933,
    36.732263
   ],
   [
    -3.699439,
    36.732333
   ],
   [
    -3.700235,
    36.732853
   ],
   [
    -3.700351,
    36.732928
   ],
   [
    -3.700795,
    36.73321
   ],
   [
    -3.700963,
    36.733318
   ],
   [
    -3.701055,
    36.733373
   ],
   [
    -3.701535,
    36.733664
   ],
   [
    -3.70153,
    36.733696
   ],
   [
    -3.701538,
    36.733727
   ],
   [
    -3.701558,
    36.733754
   ],
   [
    -3.701588,
    36.733774
   ],
   [
    -3.701624,
    36.733785
   ],
   [
    -3.701664,
    36.733786
   ],
   [
    -3.701701,
    36.733777
   ],
   [
    -3.701733,
    36.733759
   ],
   [
    -3.701869,
    36.733869
   ],
   [
    -3.702054,
    36.733978
   ],
   [
    -3.702145,
    36.734009
   ],
   [
    -3.702234,
    36.734026
   ],
   [
    -3.702292,
    36.734033
   ],
   [
    -3.702603,
    36.734083
   ],
   [
    -3.702885,
    36.734084
   ],
   [
    -3.702926,
    36.734076
   ],
   [
    -3.702937,
    36.734103
   ],
   [
    -3.702956,
    36.734125
   ],
   [
    -3.702984,
    36.734142
   ],
   [
    -3.703016,
    36.734152
   ],
   [
    -3.703051,
    36.734153
   ],
   [
    -3.703089,
    36.734145
   ],
   [
    -3.703121,
    36.734126
   ],
   [
    -3.703144,
    36.7341
   ],
   [
    -3.703153,
    36.734069
   ],
   [
    -3.703149,
    36.734037
   ],
   [
    -3.703197,
    36.734026
   ],
   [
    -3.703465,
    36.733962
   ],
   [
    -3.704446,
    36.733867
   ],
   [
    -3.70455,
    36.733883
   ],
   [
    -3.704852,
    36.733982
   ],
   [
    -3.705003,
    36.734004
   ],
   [
    -3.705134,
    36.73399
   ],
   [
    -3.705183,
    36.733976
   ],
   [
    -3.705337,
    36.733896
   ],
   [
    -3.705645,
    36.733658
   ],
   [
    -3.705931,
    36.733437
   ],
   [
    -3.706016,
    36.733388
   ],
   [
    -3.706099,
    36.733354
   ],
   [
    -3.706211,
    36.733325
   ],
   [
    -3.706529,
    36.733279
   ],
   [
    -3.707164,
    36.733189
   ],
   [
    -3.707372,
    36.733156
   ],
   [
    -3.707567,
    36.733108
   ],
   [
    -3.707765,
    36.733039
   ],
   [
    -3.708215,
    36.73287
   ],
   [
    -3.708815,
    36.732632
   ],
   [
    -3.709002,
    36.732539
   ],
   [
    -3.709141,
    36.732456
   ],
   [
    -3.70926,
    36.732362
   ],
   [
    -3.709354,
    36.732264
   ],
   [
    -3.70955,
    36.732006
   ],
   [
    -3.709628,
    36.731933
   ],
   [
    -3.709709,
    36.731893
   ],
   [
    -3.709841,
    36.731861
   ],
   [
    -3.709974,
    36.731852
   ],
   [
    -3.710084,
    36.731868
   ],
   [
    -3.710231,
    36.731901
   ],
   [
    -3.71037,
    36.731963
   ],
   [
    -3.711003,
    36.732279
   ],
   [
    -3.711184,
    36.732342
   ],
   [
    -3.711327,
    36.73236
   ],
   [
    -3.711442,
    36.732359
   ],
   [
    -3.711569,
    36.732337
   ],
   [
    -3.711767,
    36.732269
   ],
   [
    -3.711885,
    36.732233
   ],
   [
    -3.711976,
    36.732232
   ],
   [
    -3.712048,
    36.732249
   ],
   [
    -3.712921,
    36.732519
   ],
   [
    -3.713023,
    36.732563
   ],
   [
    -3.713173,
    36.732739
   ],
   [
    -3.713263,
    36.732872
   ],
   [
    -3.71336,
    36.733093
   ],
   [
    -3.713439,
    36.733188
   ],
   [
    -3.71336,
    36.733093
   ],
   [
    -3.713263,
    36.732872
   ],
   [
    -3.713173,
    36.732739
   ],
   [
    -3.713023,
    36.732563
   ],
   [
    -3.712921,
    36.732519
   ],
   [
    -3.712048,
    36.732249
   ],
   [
    -3.711976,
    36.732232
   ],
   [
    -3.711885,
    36.732233
   ],
   [
    -3.711767,
    36.732269
   ],
   [
    -3.711569,
    36.732337
   ],
   [
    -3.711442,
    36.732359
   ],
   [
    -3.711327,
    36.73236
   ],
   [
    -3.711184,
    36.732342
   ],
   [
    -3.711003,
    36.732279
   ],
   [
    -3.71037,
    36.731963
   ],
   [
    -3.710231,
    36.731901
   ],
   [
    -3.710084,
    36.731868
   ],
   [
    -3.709974,
    36.731852
   ],
   [
    -3.709841,
    36.731861
   ],
   [
    -3.709709,
    36.731893
   ],
   [
    -3.709628,
    36.731933
   ],
   [
    -3.70955,
    36.732006
   ],
   [
    -3.709354,
    36.732264
   ],
   [
    -3.70926,
    36.732362
   ],
   [
    -3.709141,
    36.732456
   ],
   [
    -3.709002,
    36.732539
   ],
   [
    -3.708815,
    36.732632
   ],
   [
    -3.708215,
    36.73287
   ],
   [
    -3.707765,
    36.733039
   ],
   [
    -3.707567,
    36.733108
   ],
   [
    -3.707372,
    36.733156
   ],
   [
    -3.707164,
    36.733189
   ],
   [
    -3.706529,
    36.733279
   ],
   [
    -3.706211,
    36.733325
   ],
   [
    -3.706099,
    36.733354
   ],
   [
    -3.706016,
    36.733388
   ],
   [
    -3.705931,
    36.733437
   ],
   [
    -3.705645,
    36.733658
   ],
   [
    -3.705337,
    36.733896
   ],
   [
    -3.705183,
    36.733976
   ],
   [
    -3.705134,
    36.73399
   ],
   [
    -3.705003,
    36.734004
   ],
   [
    -3.704852,
    36.733982
   ],
   [
    -3.70455,
    36.733883
   ],
   [
    -3.704446,
    36.733867
   ],
   [
    -3.703465,
    36.733962
   ],
   [
    -3.703197,
    36.734026
   ],
   [
    -3.703149,
    36.734037
   ],
   [
    -3.703133,
    36.73401
   ],
   [
    -3.703106,
    36.733988
   ],
   [
    -3.703072,
    36.733974
   ],
   [
    -3.703034,
    36.73397
   ],
   [
    -3.702997,
    36.733977
   ],
   [
    -3.702964,
    36.733993
   ],
   [
    -3.70294,
    36.734017
   ],
   [
    -3.702927,
    36.734046
   ],
   [
    -3.702926,
    36.734076
   ],
   [
    -3.702937,
    36.734103
   ],
   [
    -3.702956,
    36.734125
   ],
   [
    -3.702984,
    36.734142
   ],
   [
    -3.703016,
    36.734152
   ],
   [
    -3.703051,
    36.734153
   ],
   [
    -3.703038,
    36.734196
   ],
   [
    -3.703015,
    36.734243
   ],
   [
    -3.702991,
    36.734289
   ],
   [
    -3.70291,
    36.734446
   ],
   [
    -3.70263,
    36.73506
   ],
   [
    -3.702559,
    36.735247
   ],
   [
    -3.702519,
    36.735334
   ],
   [
    -3.702484,
    36.735408
   ],
   [
    -3.702386,
    36.735637
   ],
   [
    -3.702314,
    36.735811
   ],
   [
    -3.702257,
    36.736098
   ],
   [
    -3.702252,
    36.736232
   ],
   [
    -3.702425,
    36.736608
   ],
   [
    -3.702489,
    36.736928
   ],
   [
    -3.70246,
    36.737339
   ],
   [
    -3.702489,
    36.737617
   ],
   [
    -3.702617,
    36.737938
   ],
   [
    -3.702828,
    36.738407
   ],
   [
    -3.702854,
    36.738501
   ],
   [
    -3.702829,
    36.73859
   ],
   [
    -3.70281,
    36.738629
   ],
   [
    -3.702786,
    36.73867
   ],
   [
    -3.702759,
    36.738708
   ],
   [
    -3.702575,
    36.738844
   ],
   [
    -3.702545,
    36.738859
   ],
   [
    -3.702005,
    36.739134
   ],
   [
    -3.701827,
    36.739243
   ],
   [
    -3.701744,
    36.739275
   ],
   [
    -3.701612,
    36.739354
   ],
   [
    -3.701368,
    36.739544
   ],
   [
    -3.701207,
    36.739669
   ],
   [
    -3.701142,
    36.739689
   ],
   [
    -3.701033,
    36.739723
   ],
   [
    -3.700438,
    36.739759
   ],
   [
    -3.699984,
    36.739846
   ],
   [
    -3.699453,
    36.739976
   ],
   [
    -3.699254,
    36.740025
   ],
   [
    -3.699239,
    36.740061
   ],
   [
    -3.699221,
    36.74014
   ],
   [
    -3.699224,
    36.740229
   ],
   [
    -3.699042,
    36.740257
   ],
   [
    -3.698934,
    36.740266
   ],
   [
    -3.698874,
    36.740271
   ],
   [
    -3.698682,
    36.740214
   ],
   [
    -3.698587,
    36.740171
   ],
   [
    -3.698529,
    36.7401
   ],
   [
    -3.698432,
    36.739898
   ],
   [
    -3.69839,
    36.739713
   ],
   [
    -3.698367,
    36.739631
   ],
   [
    -3.698281,
    36.739401
   ],
   [
    -3.69821,
    36.73926
   ],
   [
    -3.698146,
    36.739175
   ],
   [
    -3.698078,
    36.739112
   ],
   [
    -3.697909,
    36.738997
   ],
   [
    -3.697854,
    36.738967
   ],
   [
    -3.697358,
    36.738701
   ],
   [
    -3.696017,
    36.737999
   ],
   [
    -3.69581,
    36.737898
   ],
   [
    -3.695725,
    36.737856
   ],
   [
    -3.69534,
    36.737667
   ],
   [
    -3.69526,
    36.737625
   ],
   [
    -3.695097,
    36.73754
   ],
   [
    -3.694934,
    36.737455
   ],
   [
    -3.694763,
    36.737365
   ],
   [
    -3.694523,
    36.73724
   ],
   [
    -3.694519,
    36.737237
   ],
   [
    -3.694465,
    36.737209
   ],
   [
    -3.694111,
    36.737021
   ],
   [
    -3.693749,
    36.736834
   ],
   [
    -3.693268,
    36.736589
   ],
   [
    -3.693016,
    36.736453
   ],
   [
    -3.692744,
    36.736302
   ],
   [
    -3.692726,
    36.736291
   ],
   [
    -3.692617,
    36.736235
   ],
   [
    -3.692604,
    36.736228
   ],
   [
    -3.692572,
    36.736199
   ],
   [
    -3.692347,
    36.736083
   ],
   [
    -3.692119,
    36.73597
   ],
   [
    -3.69207,
    36.735943
   ],
   [
    -3.691892,
    36.735863
   ],
   [
    -3.691845,
    36.735841
   ],
   [
    -3.691801,
    36.735816
   ],
   [
    -3.691678,
    36.735754
   ],
   [
    -3.691448,
    36.735637
   ],
   [
    -3.691223,
    36.735525
   ],
   [
    -3.691157,
    36.735481
   ],
   [
    -3.691104,
    36.73544
   ],
   [
    -3.690964,
    36.73544
   ],
   [
    -3.690889,
    36.735481
   ],
   [
    -3.690583,
    36.735779
   ],
   [
    -3.690517,
    36.735835
   ],
   [
    -3.690459,
    36.735855
   ],
   [
    -3.690355,
    36.735862
   ],
   [
    -3.690309,
    36.735865
   ],
   [
    -3.690251,
    36.735902
   ],
   [
    -3.690196,
    36.735884
   ],
   [
    -3.690137,
    36.735887
   ],
   [
    -3.690112,
    36.735846
   ],
   [
    -3.689961,
    36.735807
   ],
   [
    -3.689949,
    36.735804
   ],
   [
    -3.689854,
    36.735775
   ],
   [
    -3.68969,
    36.735708
   ],
   [
    -3.689651,
    36.735692
   ],
   [
    -3.689551,
    36.735639
   ],
   [
    -3.689516,
    36.735544
   ],
   [
    -3.689503,
    36.735362
   ],
   [
    -3.689506,
    36.735332
   ],
   [
    -3.689518,
    36.735188
   ],
   [
    -3.689541,
    36.73506
   ],
   [
    -3.689598,
    36.734781
   ],
   [
    -3.689627,
    36.734699
   ],
   [
    -3.68981,
    36.734434
   ],
   [
    -3.689795,
    36.734322
   ],
   [
    -3.689761,
    36.73426
   ],
   [
    -3.689687,
    36.734166
   ],
   [
    -3.68966,
    36.734132
   ],
   [
    -3.689453,
    36.733865
   ],
   [
    -3.68936,
    36.733741
   ],
   [
    -3.689338,
    36.733704
   ],
   [
    -3.689268,
    36.733608
   ],
   [
    -3.689203,
    36.733517
   ],
   [
    -3.689163,
    36.733462
   ],
   [
    -3.688967,
    36.733225
   ],
   [
    -3.688859,
    36.733094
   ],
   [
    -3.688825,
    36.733043
   ],
   [
    -3.688615,
    36.732764
   ],
   [
    -3.688584,
    36.732734
   ],
   [
    -3.6885,
    36.732567
   ],
   [
    -3.68846,
    36.732478
   ],
   [
    -3.68845,
    36.732358
   ],
   [
    -3.688459,
    36.732246
   ],
   [
    -3.688433,
    36.732009
   ],
   [
    -3.688445,
    36.731956
   ],
   [
    -3.688497,
    36.731926
   ],
   [
    -3.688772,
    36.731859
   ],
   [
    -3.689214,
    36.73175
   ],
   [
    -3.68924,
    36.731737
   ],
   [
    -3.689623,
    36.731642
   ],
   [
    -3.689745,
    36.731611
   ],
   [
    -3.69005,
    36.731523
   ],
   [
    -3.690195,
    36.731518
   ],
   [
    -3.690213,
    36.731528
   ],
   [
    -3.690233,
    36.731532
   ],
   [
    -3.690254,
    36.731532
   ],
   [
    -3.690282,
    36.731522
   ],
   [
    -3.69029,
    36.731515
   ],
   [
    -3.690302,
    36.731501
   ],
   [
    -3.690308,
    36.731484
   ],
   [
    -3.690306,
    36.731467
   ],
   [
    -3.690298,
    36.731451
   ],
   [
    -3.690428,
    36.731408
   ],
   [
    -3.690783,
    36.731324
   ],
   [
    -3.690892,
    36.731292
   ],
   [
    -3.69105,
    36.731236
   ],
   [
    -3.691233,
    36.731149
   ],
   [
    -3.691382,
    36.731028
   ],
   [
    -3.69145,
    36.730963
   ],
   [
    -3.691611,
    36.730803
   ],
   [
    -3.691738,
    36.730607
   ],
   [
    -3.691809,
    36.730464
   ],
   [
    -3.691889,
    36.730348
   ],
   [
    -3.691961,
    36.730274
   ],
   [
    -3.692057,
    36.730202
   ],
   [
    -3.692191,
    36.730137
   ],
   [
    -3.692364,
    36.730067
   ],
   [
    -3.692661,
    36.729966
   ],
   [
    -3.692842,
    36.729884
   ],
   [
    -3.693021,
    36.729802
   ],
   [
    -3.693165,
    36.729709
   ],
   [
    -3.693456,
    36.729493
   ],
   [
    -3.69358,
    36.729394
   ],
   [
    -3.693704,
    36.729337
   ],
   [
    -3.693806,
    36.729315
   ],
   [
    -3.693919,
    36.729302
   ],
   [
    -3.694064,
    36.72929
   ],
   [
    -3.694261,
    36.729276
   ],
   [
    -3.694354,
    36.729274
   ],
   [
    -3.694438,
    36.729259
   ],
   [
    -3.694529,
    36.729253
   ],
   [
    -3.694611,
    36.72926
   ],
   [
    -3.6947,
    36.729277
   ],
   [
    -3.694784,
    36.729315
   ],
   [
    -3.694884,
    36.729381
   ],
   [
    -3.695384,
    36.729708
   ],
   [
    -3.695464,
    36.729761
   ],
   [
    -3.695881,
    36.730034
   ],
   [
    -3.69593,
    36.730066
   ],
   [
    -3.696525,
    36.730455
   ],
   [
    -3.696737,
    36.730593
   ],
   [
    -3.696895,
    36.730697
   ],
   [
    -3.696943,
    36.730728
   ]
  ]
 }
}
