{
 "type": "Feature",
 "properties": {
  "shape_id": "ALM_2A_CIRC",
  "osm_relation": 18501805,
  "attribution": "© OpenStreetMap contributors, ODbL"
 },
 "geometry": {
  "type": "LineString",
  "coordinates": [
   [
    -3.690196,
    36.735884
   ],
   [
    -3.690137,
    36.735887
   ],
   [
    -3.690082,
    36.735912
   ],
   [
    -3.690047,
    36.735955
   ],
   [
    -3.69004,
    36.736005
   ],
   [
    -3.690062,
    36.736053
   ],
   [
    -3.6901,
    36.736083
   ],
   [
    -3.69002,
    36.736121
   ],
   [
    -3.690069,
    36.73621
   ],
   [
    -3.690094,
    36.736291
   ],
   [
    -3.690111,
    36.736376
   ],
   [
    -3.690123,
    36.736429
   ],
   [
    -3.690104,
    36.736471
   ],
   [
    -3.690113,
    36.736516
   ],
   [
    -3.690146,
    36.736552
   ],
   [
    -3.690209,
    36.736573
   ],
   [
    -3.690276,
    36.736562
   ],
   [
    -3.690324,
    36.736523
   ],
   [
    -3.690387,
    36.736582
   ],
   [
    -3.690588,
    36.736814
   ],
   [
    -3.69091,
    36.736623
   ],
   [
    -3.690758,
    36.73644
   ],
   [
    -3.691026,
    36.736267
   ],
   [
    -3.691056,
    36.736289
   ],
   [
    -3.691162,
    36.736418
   ],
   [
    -3.691259,
    36.73655
   ],
   [
    -3.691434,
    36.736736
   ],
   [
    -3.691762,
    36.736373
   ],
   [
    -3.692008,
    36.736019
   ],
   [
    -3.69207,
    36.735943
   ],
   [
    -3.692119,
    36.73597
   ],
   [
    -3.692347,
    36.736083
   ],
   [
    -3.692572,
    36.736199
   ],
   [
    -3.692604,
    36.736228
   ],
   [
    -3.692617,
    36.736235
   ],
   [
    -3.692726,
    36.736291
   ],
   [
    -3.692744,
    36.736302
   ],
   [
    -3.693016,
    36.736453
   ],
   [
    -3.693268,
    36.736589
   ],
   [
    -3.693749,
    36.736834
   ],
   [
    -3.694111,
    36.737021
   ],
   [
    -3.694465,
    36.737209
   ],
   [
    -3.694519,
    36.737237
   ],
   [
    -3.694523,
    36.73724
   ],
   [
    -3.694763,
    36.737365
   ],
   [
    -3.694934,
    36.737455
   ],
   [
    -3.695097,
    36.73754
   ],
   [
    -3.69526,
    36.737625
   ],
   [
    -3.69534,
    36.737667
   ],
   [
    -3.695725,
    36.737856
   ],
   [
    -3.69581,
    36.737898
   ],
   [
    -3.696017,
    36.737999
   ],
   [
    -3.697358,
    36.738701
   ],
   [
    -3.697854,
    36.738967
   ],
   [
    -3.697909,
    36.738997
   ],
   [
    -3.698078,
    36.739112
   ],
   [
    -3.698146,
    36.739175
   ],
   [
    -3.69821,
    36.73926
   ],
   [
    -3.698281,
    36.739401
   ],
   [
    -3.698367,
    36.739631
   ],
   [
    -3.69839,
    36.739713
   ],
   [
    -3.698432,
    36.739898
   ],
   [
    -3.698438,
    36.740075
   ],
   [
    -3.698438,
    36.740222
   ],
   [
    -3.698435,
    36.740263
   ],
   [
    -3.698509,
    36.740267
   ],
   [
    -3.698654,
    36.740276
   ],
   [
    -3.698824,
    36.740272
   ],
   [
    -3.698874,
    36.740271
   ],
   [
    -3.698934,
    36.740266
   ],
   [
    -3.699042,
    36.740257
   ],
   [
    -3.699224,
    36.740229
   ],
   [
    -3.699364,
    36.740201
   ],
   [
    -3.699742,
    36.740128
   ],
   [
    -3.700004,
    36.740102
   ],
   [
    -3.70025,
    36.740091
   ],
   [
    -3.700463,
    36.740099
   ],
   [
    -3.700683,
    36.740126
   ],
   [
    -3.701191,
    36.740229
   ],
   [
    -3.701393,
    36.740251
   ],
   [
    -3.701571,
    36.740237
   ],
   [
    -3.701743,
    36.740203
   ],
   [
    -3.701933,
    36.74014
   ],
   [
    -3.702484,
    36.739906
   ],
   [
    -3.702773,
    36.739807
   ],
   [
    -3.703062,
    36.739753
   ],
   [
    -3.703311,
    36.739743
   ],
   [
    -3.703531,
    36.739764
   ],
   [
    -3.703749,
    36.739817
   ],
   [
    -3.703934,
    36.739885
   ],
   [
    -3.704108,
    36.739977
   ],
   [
    -3.704259,
    36.740079
   ],
   [
    -3.705258,
    36.740836
   ],
   [
    -3.705387,
    36.740919
   ],
   [
    -3.70552,
    36.740971
   ],
   [
    -3.705682,
    36.740989
   ],
   [
    -3.705821,
    36.740976
   ],
   [
    -3.705945,
    36.740941
   ],
   [
    -3.706068,
    36.740884
   ],
   [
    -3.706166,
    36.740819
   ],
   [
    -3.706242,
    36.740747
   ],
   [
    -3.706307,
    36.740664
   ],
   [
    -3.706353,
    36.740569
   ],
   [
    -3.70638,
    36.740451
   ],
   [
    -3.706382,
    36.740323
   ],
   [
    -3.706362,
    36.74002
   ],
   [
    -3.706396,
    36.739845
   ],
   [
    -3.70648,
    36.739649
   ],
   [
    -3.706627,
    36.739459
   ],
   [
    -3.70731,
    36.738854
   ],
   [
    -3.70748,
    36.738737
   ],
   [
    -3.707893,
    36.73852
   ],
   [
    -3.708017,
    36.738417
   ],
   [
    -3.708104,
    36.738309
   ],
   [
    -3.708183,
    36.738168
   ],
   [
    -3.70822,
    36.738098
   ],
   [
    -3.708255,
    36.738025
   ],
   [
    -3.708373,
    36.737732
   ],
   [
    -3.708629,
    36.737096
   ],
   [
    -3.708676,
    36.736995
   ],
   [
    -3.708753,
    36.736841
   ],
   [
    -3.708862,
    36.736712
   ],
   [
    -3.708982,
    36.736613
   ],
   [
    -3.70914,
    36.736516
   ],
   [
    -3.709344,
    36.736443
   ],
   [
    -3.709586,
    36.736398
   ],
   [
    -3.709799,
    36.7364
   ],
   [
    -3.710015,
    36.736433
   ],
   [
    -3.710207,
    36.736488
   ],
   [
    -3.710309,
    36.736532
   ],
   [
    -3.7105,
    36.736634
   ],
   [
    -3.711467,
    36.737293
   ],
   [
    -3.711561,
    36.737361
   ],
   [
    -3.711923,
    36.737608
   ],
   [
    -3.712272,
    36.737842
   ],
   [
    -3.712405,
    36.737925
   ],
   [
    -3.712546,
    36.738002
   ],
   [
    -3.712741,
    36.738075
   ],
   [
    -3.712939,
    36.73813
   ],
   [
    -3.713142,
    36.738159
   ],
   [
    -3.713364,
    36.738166
   ],
   [
    -3.713611,
    36.738142
   ],
   [
    -3.713759,
    36.73811
   ],
   [
    -3.713916,
    36.738065
   ],
   [
    -3.714107,
    36.737995
   ],
   [
    -3.714331,
    36.73786
   ],
   [
    -3.714439,
    36.737773
   ],
   [
    -3.714559,
    36.737668
   ],
   [
    -3.71467,
    36.737531
   ],
   [
    -3.714752,
    36.737399
   ],
   [
    -3.71481,
    36.737259
   ],
   [
    -3.714857,
    36.737108
   ],
   [
    -3.714878,
    36.736945
   ],
   [
    -3.714875,
    36.736825
   ],
   [
    -3.714874,
    36.736773
   ],
   [
    -3.714808,
    36.736212
   ],
   [
    -3.7148,
    36.736056
   ],
   [
    -3.714826,
    36.735916
   ],
   [
    -3.714874,
    36.735778
   ],
   [
    -3.714956,
    36.735658
   ],
   [
    -3.715048,
    36.735556
   ],
   [
    -3.715176,
    36.735463
   ],
   [
    -3.715361,
    36.735372
   ],
   [
    -3.715459,
    36.735341
   ],
   [
    -3.715625,
    36.735306
   ],
   [
    -3.715799,
    36.735302
   ],
   [
    -3.71596,
    36.735323
   ],
   [
    -3.716139,
    36.735368
   ],
   [
    -3.716272,
    36.735427
   ],
   [
    -3.716422,
    36.735514
   ],
   [
    -3.716512,
    36.735579
   ],
   [
    -3.716633,
    36.735704
   ],
   [
    -3.716743,
    36.735842
   ],
   [
    -3.717028,
    36.736291
   ],
   [
    -3.717151,
    36.73643
   ],
   [
    -3.71728,
    36.736534
   ],
   [
    -3.717436,
    36.736635
   ],
   [
    -3.71757,
    36.736698
   ],
   [
    -3.717731,
    36.736743
   ],
   [
    -3.717855,
    36.736769
   ],
   [
    -3.717983,
    36.736782
   ],
   [
    -3.718103,
    36.736786
   ],
   [
    -3.718277,
    36.736767
   ],
   [
    -3.718546,
    36.736713
   ],
   [
    -3.719002,
    36.736598
   ],
   [
    -3.719189,
    36.736562
   ],
   [
    -3.719355,
    36.736548
   ],
   [
    -3.719514,
    36.736555
   ],
   [
    -3.719686,
    36.73658
   ],
   [
    -3.719847,
    36.736618
   ],
   [
    -3.720018,
    36.736684
   ],
   [
    -3.720158,
    36.736766
   ],
   [
    -3.720252,
    36.736837
   ],
   [
    -3.720549,
    36.737088
   ],
   [
    -3.720709,
    36.737199
   ],
   [
    -3.720872,
    36.73729
   ],
   [
    -3.721057,
    36.737363
   ],
   [
    -3.721225,
    36.737408
   ],
   [
    -3.721419,
    36.737432
   ],
   [
    -3.721599,
    36.737432
   ],
   [
    -3.721794,
    36.737417
   ],
   [
    -3.722569,
    36.737296
   ],
   [
    -3.722904,
    36.73723
   ],
   [
    -3.723161,
    36.737197
   ],
   [
    -3.723329,
    36.737194
   ],
   [
    -3.723477,
    36.737189
   ],
   [
    -3.723731,
    36.737192
   ],
   [
    -3.724082,
    36.737228
   ],
   [
    -3.724431,
    36.737299
   ],
   [
    -3.724712,
    36.737377
   ],
   [
    -3.724994,
    36.737478
   ],
   [
    -3.72558,
    36.737788
   ],
   [
    -3.725873,
    36.737901
   ],
   [
    -3.72618,
    36.737982
   ],
   [
    -3.726387,
    36.738021
   ],
   [
    -3.726608,
    36.738042
   ],
   [
    -3.726828,
    36.738041
   ],
   [
    -3.727102,
    36.738012
   ],
   [
    -3.72734,
    36.737962
   ],
   [
    -3.72758,
    36.737894
   ],
   [
    -3.727742,
    36.737825
   ],
   [
    -3.727893,
    36.737741
   ],
   [
    -3.728051,
    36.73764
   ],
   [
    -3.728204,
    36.737504
   ],
   [
    -3.728377,
    36.737309
   ],
   [
    -3.728513,
    36.737152
   ],
   [
    -3.728734,
    36.736944
   ],
   [
    -3.728884,
    36.73684
   ],
   [
    -3.729041,
    36.736757
   ],
   [
    -3.729219,
    36.736697
   ],
   [
    -3.729444,
    36.736657
   ],
   [
    -3.729677,
    36.736655
   ],
   [
    -3.729936,
    36.736672
   ],
   [
    -3.730709,
    36.736717
   ],
   [
    -3.731018,
    36.736743
   ],
   [
    -3.731358,
    36.736775
   ],
   [
    -3.731857,
    36.736803
   ],
   [
    -3.732663,
    36.736837
   ],
   [
    -3.733638,
    36.736902
   ],
   [
    -3.733804,
    36.73693
   ],
   [
    -3.733965,
    36.736971
   ],
   [
    -3.73411,
    36.737017
   ],
   [
    -3.734243,
    36.737073
   ],
   [
    -3.734362,
    36.737141
   ],
   [
    -3.734465,
    36.737215
   ],
   [
    -3.734564,
    36.737291
   ],
   [
    -3.734653,
    36.737373
   ],
   [
    -3.734728,
    36.737451
   ],
   [
    -3.734788,
    36.737533
   ],
   [
    -3.734852,
    36.737622
   ],
   [
    -3.734895,
    36.737718
   ],
   [
    -3.73493,
    36.737828
   ],
   [
    -3.734943,
    36.737932
   ],
   [
    -3.734985,
    36.738273
   ],
   [
    -3.735013,
    36.738527
   ],
   [
    -3.735078,
    36.738708
   ],
   [
    -3.735193,
    36.738897
   ],
   [
    -3.735367,
    36.739082
   ],
   [
    -3.735549,
    36.739207
   ],
   [
    -3.735685,
    36.73927
   ],
   [
    -3.735831,
    36.739325
   ],
   [
    -3.735978,
    36.739364
   ],
   [
    -3.736139,
    36.739393
   ],
   [
    -3.736313,
    36.739406
   ],
   [
    -3.736562,
    36.739389
   ],
   [
    -3.736784,
    36.739339
   ],
   [
    -3.736989,
    36.73926
   ],
   [
    -3.7372,
    36.739128
   ],
   [
    -3.737363,
    36.73898
   ],
   [
    -3.737426,
    36.738907
   ],
   [
    -3.737464,
    36.738852
   ],
   [
    -3.737574,
    36.738766
   ],
   [
    -3.737695,
    36.738601
   ],
   [
    -3.738071,
    36.738036
   ],
   [
    -3.738281,
    36.737736
   ],
   [
    -3.738602,
    36.73726
   ],
   [
    -3.738987,
    36.736681
   ],
   [
    -3.739087,
    36.736478
   ],
   [
    -3.739148,
    36.736387
   ],
   [
    -3.739296,
    36.736158
   ],
   [
    -3.739483,
    36.735922
   ],
   [
    -3.739613,
    36.735809
   ],
   [
    -3.739763,
    36.73574
   ],
   [
    -3.739868,
    36.735706
   ],
   [
    -3.739883,
    36.73563
   ],
   [
    -3.739908,
    36.735557
   ],
   [
    -3.739914,
    36.735483
   ],
   [
    -3.739854,
    36.735439
   ],
   [
    -3.73978,
    36.735415
   ],
   [
    -3.739616,
    36.735345
   ],
   [
    -3.739551,
    36.735288
   ],
   [
    -3.739537,
    36.735227
   ],
   [
    -3.739578,
    36.735163
   ],
   [
    -3.739642,
    36.735138
   ],
   [
    -3.739973,
    36.735149
   ],
   [
    -3.740169,
    36.735052
   ],
   [
    -3.740229,
    36.734998
   ],
   [
    -3.740369,
    36.734869
   ],
   [
    -3.740617,
    36.734646
   ],
   [
    -3.740647,
    36.734619
   ],
   [
    -3.740722,
    36.734552
   ],
   [
    -3.740754,
    36.734521
   ],
   [
    -3.740875,
    36.734407
   ],
   [
    -3.740982,
    36.734305
   ],
   [
    -3.741014,
    36.734278
   ],
   [
    -3.741189,
    36.734123
   ],
   [
    -3.741225,
    36.734091
   ],
   [
    -3.741274,
    36.734051
   ],
   [
    -3.741339,
    36.734014
   ],
   [
    -3.741366,
    36.733998
   ],
   [
    -3.741405,
    36.733975
   ],
   [
    -3.741427,
    36.733987
   ],
   [
    -3.741451,
    36.733994
   ],
   [
    -3.741477,
    36.733994
   ],
   [
    -3.741502,
    36.733989
   ],
   [
    -3.741556,
    36.734002
   ],
   [
    -3.741686,
    36.734042
   ],
   [
    -3.741743,
    36.734087
   ],
   [
    -3.741914,
    36.73422
   ],
   [
    -3.741971,
    36.734264
   ],
   [
    -3.742249,
    36.734476
   ],
   [
    -3.742414,
    36.734575
   ],
   [
    -3.742634,
    36.734698
   ],
   [
    -3.742814,
    36.734799
   ],
   [
    -3.743017,
    36.73491
   ],
   [
    -3.743362,
    36.735102
   ],
   [
    -3.743478,
    36.735167
   ],
   [
    -3.743722,
    36.7353
   ],
   [
    -3.74384,
    36.735363
   ],
   [
    -3.744286,
    36.735598
   ],
   [
    -3.744562,
    36.735743
   ],
   [
    -3.744897,
    36.735941
   ],
   [
    -3.745189,
    36.73609
   ],
   [
    -3.745253,
    36.736121
   ],
   [
    -3.745318,
    36.736156
   ],
   [
    -3.745426,
    36.736216
   ],
   [
    -3.745582,
    36.736302
   ],
   [
    -3.745676,
    36.736354
   ],
   [
    -3.745784,
    36.736412
   ],
   [
    -3.745955,
    36.736505
   ],
   [
    -3.746039,
    36.736548
   ],
   [
    -3.746148,
    36.736606
   ],
   [
    -3.746237,
    36.736649
   ],
   [
    -3.746256,
    36.736658
   ],
   [
    -3.746737,
    36.736931
   ],
   [
    -3.747283,
    36.737204
   ],
   [
    -3.74742,
    36.737273
   ],
   [
    -3.747781,
    36.737445
   ],
   [
    -3.7479,
    36.737495
   ],
   [
    -3.748098,
    36.737582
   ],
   [
    -3.748252,
    36.737649
   ],
   [
    -3.748396,
    36.737711
   ],
   [
    -3.748535,
    36.737769
   ],
   [
    -3.74874,
    36.737853
   ],
   [
    -3.748821,
    36.737886
   ],
   [
    -3.74897,
    36.737942
   ],
   [
    -3.74921,
    36.738031
   ],
   [
    -3.749483,
    36.738132
   ],
   [
    -3.749793,
    36.738255
   ],
   [
    -3.749971,
    36.738306
   ],
   [
    -3.750309,
    36.738348
   ],
   [
    -3.751548,
    36.738475
   ],
   [
    -3.751816,
    36.7385
   ],
   [
    -3.752483,
    36.738569
   ],
   [
    -3.752585,
    36.73858
   ],
   [
    -3.752903,
    36.738614
   ],
   [
    -3.753438,
    36.738735
   ],
   [
    -3.753598,
    36.738777
   ],
   [
    -3.75373,
    36.738833
   ],
   [
    -3.754083,
    36.738897
   ],
   [
    -3.754353,
    36.738926
   ],
   [
    -3.754399,
    36.738906
   ],
   [
    -3.754416,
    36.738859
   ],
   [
    -3.754378,
    36.738836
   ],
   [
    -3.754221,
    36.738845
   ],
   [
    -3.75409,
    36.738837
   ],
   [
    -3.753598,
    36.738777
   ],
   [
    -3.753438,
    36.738735
   ],
   [
    -3.752903,
    36.738614
   ],
   [
    -3.752585,
    36.73858
   ],
   [
    -3.752483,
    36.738569
   ],
   [
    -3.751816,
    36.7385
   ],
   [
    -3.751548,
    36.738475
   ],
   [
    -3.750309,
    36.738348
   ],
   [
    -3.749971,
    36.738306
   ],
   [
    -3.749793,
    36.738255
   ],
   [
    -3.749483,
    36.738132
   ],
   [
    -3.74921,
    36.738031
   ],
   [
    -3.74897,
    36.737942
   ],
   [
    -3.748821,
    36.737886
   ],
   [
    -3.74874,
    36.737853
   ],
   [
    -3.748535,
    36.737769
   ],
   [
    -3.748396,
    36.737711
   ],
   [
    -3.748252,
    36.737649
   ],
   [
    -3.748098,
    36.737582
   ],
   [
    -3.7479,
    36.737495
   ],
   [
    -3.747781,
    36.737445
   ],
   [
    -3.74742,
    36.737273
   ],
   [
    -3.747283,
    36.737204
   ],
   [
    -3.746737,
    36.736931
   ],
   [
    -3.746256,
    36.736658
   ],
   [
    -3.746237,
    36.736649
   ],
   [
    -3.746148,
    36.736606
   ],
   [
    -3.746039,
    36.736548
   ],
   [
    -3.745955,
    36.736505
   ],
   [
    -3.745784,
    36.736412
   ],
   [
    -3.745676,
    36.736354
   ],
   [
    -3.745582,
    36.736302
   ],
   [
    -3.745426,
    36.736216
   ],
   [
    -3.745318,
    36.736156
   ],
   [
    -3.745253,
    36.736121
   ],
   [
    -3.745189,
    36.73609
   ],
   [
    -3.744897,
    36.735941
   ],
   [
    -3.744562,
    36.735743
   ],
   [
    -3.744286,
    36.735598
   ],
   [
    -3.74384,
    36.735363
   ],
   [
    -3.743722,
    36.7353
   ],
   [
    -3.743478,
    36.735167
   ],
   [
    -3.743362,
    36.735102
   ],
   [
    -3.743017,
    36.73491
   ],
   [
    -3.742814,
    36.734799
   ],
   [
    -3.742634,
    36.734698
   ],
   [
    -3.742414,
    36.734575
   ],
   [
    -3.742249,
    36.734476
   ],
   [
    -3.741971,
    36.734264
   ],
   [
    -3.741914,
    36.73422
   ],
   [
    -3.741743,
    36.734087
   ],
   [
    -3.741686,
    36.734042
   ],
   [
    -3.741594,
    36.733942
   ],
   [
    -3.741554,
    36.733918
   ],
   [
    -3.741547,
    36.733896
   ],
   [
    -3.741532,
    36.733877
   ],
   [
    -3.741509,
    36.733862
   ],
   [
    -3.741482,
    36.733854
   ],
   [
    -3.741427,
    36.733818
   ],
   [
    -3.741301,
    36.733744
   ],
   [
    -3.741255,
    36.733702
   ],
   [
    -3.741095,
    36.733585
   ],
   [
    -3.741055,
    36.733558
   ],
   [
    -3.741034,
    36.733542
   ],
   [
    -3.740956,
    36.733481
   ],
   [
    -3.740915,
    36.733518
   ],
   [
    -3.740446,
    36.733897
   ],
   [
    -3.740027,
    36.734254
   ],
   [
    -3.739837,
    36.734429
   ],
   [
    -3.739737,
    36.734525
   ],
   [
    -3.739559,
    36.734724
   ],
   [
    -3.739415,
    36.734908
   ],
   [
    -3.73939,
    36.734943
   ],
   [
    -3.739376,
    36.734965
   ],
   [
    -3.739193,
    36.735274
   ],
   [
    -3.739025,
    36.735554
   ],
   [
    -3.739077,
    36.735576
   ],
   [
    -3.739129,
    36.735599
   ],
   [
    -3.739153,
    36.73561
   ],
   [
    -3.739193,
    36.735608
   ],
   [
    -3.739361,
    36.735356
   ],
   [
    -3.739475,
    36.735321
   ],
   [
    -3.739539,
    36.735339
   ],
   [
    -3.739575,
    36.735373
   ],
   [
    -3.739581,
    36.735437
   ],
   [
    -3.739584,
    36.73547
   ],
   [
    -3.739546,
    36.735509
   ],
   [
    -3.739529,
    36.73556
   ],
   [
    -3.739494,
    36.735595
   ],
   [
    -3.739444,
    36.735706
   ],
   [
    -3.739353,
    36.735934
   ],
   [
    -3.739296,
    36.736158
   ],
   [
    -3.739148,
    36.736387
   ],
   [
    -3.739087,
    36.736478
   ],
   [
    -3.738942,
    36.736656
   ],
   [
    -3.738837,
    36.736804
   ],
   [
    -3.738446,
    36.737354
   ],
   [
    -3.738346,
    36.73751
   ],
   [
    -3.738274,
    36.737616
   ],
   [
    -3.738018,
    36.737997
   ],
   [
    -3.737885,
    36.738191
   ],
   [
    -3.737661,
    36.738517
   ],
   [
    -3.737464,
    36.738852
   ],
   [
    -3.737426,
    36.738907
   ],
   [
    -3.737363,
    36.73898
   ],
   [
    -3.7372,
    36.739128
   ],
   [
    -3.736989,
    36.73926
   ],
   [
    -3.736784,
    36.739339
   ],
   [
    -3.736562,
    36.739389
   ],
   [
    -3.736313,
    36.739406
   ],
   [
    -3.736139,
    36.739393
   ],
   [
    -3.735978,
    36.739364
   ],
   [
    -3.735831,
    36.739325
   ],
   [
    -3.735685,
    36.73927
   ],
   [
    -3.735549,
    36.739207
   ],
   [
    -3.735367,
    36.739082
   ],
   [
    -3.735193,
    36.738897
   ],
   [
    -3.735078,
    36.738708
   ],
   [
    -3.735013,
    36.738527
   ],
   [
    -3.734985,
    36.738273
   ],
   [
    -3.734943,
    36.737932
   ],
   [
    -3.73493,
    36.737828
   ],
   [
    -3.734895,
    36.737718
   ],
   [
    -3.734852,
    36.737622
   ],
   [
    -3.734788,
    36.737533
   ],
   [
    -3.734728,
    36.737451
   ],
   [
    -3.734653,
    36.737373
   ],
   [
    -3.734564,
    36.737291
   ],
   [
    -3.734465,
    36.737215
   ],
   [
    -3.734362,
    36.737141
   ],
   [
    -3.734243,
    36.737073
   ],
   [
    -3.73411,
    36.737017
   ],
   [
    -3.733965,
    36.736971
   ],
   [
    -3.733804,
    36.73693
   ],
   [
    -3.733638,
    36.736902
   ],
   [
    -3.732663,
    36.736837
   ],
   [
    -3.731857,
    36.736803
   ],
   [
    -3.731358,
    36.736775
   ],
   [
    -3.731018,
    36.736743
   ],
   [
    -3.730709,
    36.736717
   ],
   [
    -3.729936,
    36.736672
   ],
   [
    -3.729677,
    36.736655
   ],
   [
    -3.729444,
    36.736657
   ],
   [
    -3.729219,
    36.736697
   ],
   [
    -3.729041,
    36.736757
   ],
   [
    -3.728884,
    36.73684
   ],
   [
    -3.728734,
    36.736944
   ],
   [
    -3.728513,
    36.737152
   ],
   [
    -3.728377,
    36.737309
   ],
   [
    -3.728204,
    36.737504
   ],
   [
    -3.728051,
    36.73764
   ],
   [
    -3.727893,
    36.737741
   ],
   [
    -3.727742,
    36.737825
   ],
   [
    -3.72758,
    36.737894
   ],
   [
    -3.72734,
    36.737962
   ],
   [
    -3.727102,
    36.738012
   ],
   [
    -3.726828,
    36.738041
   ],
   [
    -3.726608,
    36.738042
   ],
   [
    -3.726387,
    36.738021
   ],
   [
    -3.72618,
    36.737982
   ],
   [
    -3.725873,
    36.737901
   ],
   [
    -3.72558,
    36.737788
   ],
   [
    -3.724994,
    36.737478
   ],
   [
    -3.724712,
    36.737377
   ],
   [
    -3.724431,
    36.737299
   ],
   [
    -3.724082,
    36.737228
   ],
   [
    -3.723731,
    36.737192
   ],
   [
    -3.723477,
    36.737189
   ],
   [
    -3.723329,
    36.737194
   ],
   [
    -3.723161,
    36.737197
   ],
   [
    -3.722904,
    36.73723
   ],
   [
    -3.722569,
    36.737296
   ],
   [
    -3.721794,
    36.737417
   ],
   [
    -3.721599,
    36.737432
   ],
   [
    -3.721419,
    36.737432
   ],
   [
    -3.721225,
    36.737408
   ],
   [
    -3.721057,
    36.737363
   ],
   [
    -3.720872,
    36.73729
   ],
   [
    -3.720709,
    36.737199
   ],
   [
    -3.720549,
    36.737088
   ],
   [
    -3.720252,
    36.736837
   ],
   [
    -3.720158,
    36.736766
   ],
   [
    -3.720018,
    36.736684
   ],
   [
    -3.719847,
    36.736618
   ],
   [
    -3.719686,
    36.73658
   ],
   [
    -3.719514,
    36.736555
   ],
   [
    -3.719355,
    36.736548
   ],
   [
    -3.719189,
    36.736562
   ],
   [
    -3.719002,
    36.736598
   ],
   [
    -3.718546,
    36.736713
   ],
   [
    -3.718277,
    36.736767
   ],
   [
    -3.718103,
    36.736786
   ],
   [
    -3.717983,
    36.736782
   ],
   [
    -3.717855,
    36.736769
   ],
   [
    -3.717731,
    36.736743
   ],
   [
    -3.71757,
    36.736698
   ],
   [
    -3.717436,
    36.736635
   ],
   [
    -3.71728,
    36.736534
   ],
   [
    -3.717151,
    36.73643
   ],
   [
    -3.717028,
    36.736291
   ],
   [
    -3.716743,
    36.735842
   ],
   [
    -3.716633,
    36.735704
   ],
   [
    -3.716512,
    36.735579
   ],
   [
    -3.716422,
    36.735514
   ],
   [
    -3.716272,
    36.735427
   ],
   [
    -3.716139,
    36.735368
   ],
   [
    -3.71596,
    36.735323
   ],
   [
    -3.715799,
    36.735302
   ],
   [
    -3.715625,
    36.735306
   ],
   [
    -3.715459,
    36.735341
   ],
   [
    -3.715361,
    36.735372
   ],
   [
    -3.715176,
    36.735463
   ],
   [
    -3.715048,
    36.735556
   ],
   [
    -3.714956,
    36.735658
   ],
   [
    -3.714874,
    36.735778
   ],
   [
    -3.714826,
    36.735916
   ],
   [
    -3.7148,
    36.736056
   ],
   [
    -3.714808,
    36.736212
   ],
   [
    -3.714874,
    36.736773
   ],
   [
    -3.714875,
    36.736825
   ],
   [
    -3.714878,
    36.736945
   ],
   [
    -3.714857,
    36.737108
   ],
   [
    -3.71481,
    36.737259
   ],
   [
    -3.714752,
    36.737399
   ],
   [
    -3.71467,
    36.737531
   ],
   [
    -3.714559,
    36.737668
   ],
   [
    -3.714439,
    36.737773
   ],
   [
    -3.714331,
    36.73786
   ],
   [
    -3.714107,
    36.737995
   ],
   [
    -3.713916,
    36.738065
   ],
   [
    -3.713759,
    36.73811
   ],
   [
    -3.713611,
    36.738142
   ],
   [
    -3.713364,
    36.738166
   ],
   [
    -3.713142,
    36.738159
   ],
   [
    -3.712939,
    36.73813
   ],
   [
    -3.712741,
    36.738075
   ],
   [
    -3.712546,
    36.738002
   ],
   [
    -3.712405,
    36.737925
   ],
   [
    -3.712272,
    36.737842
   ],
   [
    -3.711923,
    36.737608
   ],
   [
    -3.711561,
    36.737361
   ],
   [
    -3.711467,
    36.737293
   ],
   [
    -3.7105,
    36.736634
   ],
   [
    -3.710309,
    36.736532
   ],
   [
    -3.710207,
    36.736488
   ],
   [
    -3.710015,
    36.736433
   ],
   [
    -3.709799,
    36.7364
   ],
   [
    -3.709586,
    36.736398
   ],
   [
    -3.709344,
    36.736443
   ],
   [
    -3.70914,
    36.736516
   ],
   [
    -3.708982,
    36.736613
   ],
   [
    -3.708862,
    36.736712
   ],
   [
    -3.708753,
    36.736841
   ],
   [
    -3.708676,
    36.736995
   ],
   [
    -3.708629,
    36.737096
   ],
   [
    -3.708373,
    36.737732
   ],
   [
    -3.708255,
    36.738025
   ],
   [
    -3.70822,
    36.738098
   ],
   [
    -3.708082,
    36.738123
   ],
   [
    -3.70796,
    36.738227
   ],
   [
    -3.707942,
    36.738397
   ],
   [
    -3.707893,
    36.73852
   ],
   [
    -3.70748,
    36.738737
   ],
   [
    -3.70731,
    36.738854
   ],
   [
    -3.706627,
    36.739459
   ],
   [
    -3.70648,
    36.739649
   ],
   [
    -3.706396,
    36.739845
   ],
   [
    -3.706362,
    36.74002
   ],
   [
    -3.706382,
    36.740323
   ],
   [
    -3.70638,
    36.740451
   ],
   [
    -3.706353,
    36.740569
   ],
   [
    -3.706307,
    36.740664
   ],
   [
    -3.706242,
    36.740747
   ],
   [
    -3.706166,
    36.740819
   ],
   [
    -3.706068,
    36.740884
   ],
   [
    -3.705945,
    36.740941
   ],
   [
    -3.705821,
    36.740976
   ],
   [
    -3.705682,
    36.740989
   ],
   [
    -3.70552,
    36.740971
   ],
   [
    -3.705387,
    36.740919
   ],
   [
    -3.705258,
    36.740836
   ],
   [
    -3.704259,
    36.740079
   ],
   [
    -3.704108,
    36.739977
   ],
   [
    -3.703934,
    36.739885
   ],
   [
    -3.703749,
    36.739817
   ],
   [
    -3.703531,
    36.739764
   ],
   [
    -3.703311,
    36.739743
   ],
   [
    -3.703062,
    36.739753
   ],
   [
    -3.702773,
    36.739807
   ],
   [
    -3.702484,
    36.739906
   ],
   [
    -3.701933,
    36.74014
   ],
   [
    -3.701743,
    36.740203
   ],
   [
    -3.701571,
    36.740237
   ],
   [
    -3.701393,
    36.740251
   ],
   [
    -3.701191,
    36.740229
   ],
   [
    -3.700683,
    36.740126
   ],
   [
    -3.700463,
    36.740099
   ],
   [
    -3.70025,
    36.740091
   ],
   [
    -3.700004,
    36.740102
   ],
   [
    -3.699742,
    36.740128
   ],
   [
    -3.699364,
    36.740201
   ],
   [
    -3.699224,
    36.740229
   ],
   [
    -3.699042,
    36.740257
   ],
   [
    -3.698934,
    36.740266
   ],
   [
    -3.698874,
    36.740271
   ],
   [
    -3.698682,
    36.740214
   ],
   [
    -3.698587,
    36.740171
   ],
   [
    -3.698529,
    36.7401
   ],
   [
    -3.698432,
    36.739898
   ],
   [
    -3.69839,
    36.739713
   ],
   [
    -3.698367,
    36.739631
   ],
   [
    -3.698281,
    36.739401
   ],
   [
    -3.69821,
    36.73926
   ],
   [
    -3.698146,
    36.739175
   ],
   [
    -3.698078,
    36.739112
   ],
   [
    -3.697909,
    36.738997
   ],
   [
    -3.697854,
    36.738967
   ],
   [
    -3.697358,
    36.738701
   ],
   [
    -3.696017,
    36.737999
   ],
   [
    -3.69581,
    36.737898
   ],
   [
    -3.695725,
    36.737856
   ],
   [
    -3.69534,
    36.737667
   ],
   [
    -3.69526,
    36.737625
   ],
   [
    -3.695097,
    36.73754
   ],
   [
    -3.694934,
    36.737455
   ],
   [
    -3.694763,
    36.737365
   ],
   [
    -3.694523,
    36.73724
   ],
   [
    -3.694519,
    36.737237
   ],
   [
    -3.694465,
    36.737209
   ],
   [
    -3.694111,
    36.737021
   ],
   [
    -3.693749,
    36.736834
   ],
   [
    -3.693268,
    36.736589
   ],
   [
    -3.693016,
    36.736453
   ],
   [
    -3.692744,
    36.736302
   ],
   [
    -3.692726,
    36.736291
   ],
   [
    -3.692617,
    36.736235
   ],
   [
    -3.692604,
    36.736228
   ],
   [
    -3.692572,
    36.736199
   ],
   [
    -3.692347,
    36.736083
   ],
   [
    -3.692119,
    36.73597
   ],
   [
    -3.69207,
    36.735943
   ],
   [
    -3.691892,
    36.735863
   ],
   [
    -3.691845,
    36.735841
   ],
   [
    -3.691801,
    36.735816
   ],
   [
    -3.691678,
    36.735754
   ],
   [
    -3.691448,
    36.735637
   ],
   [
    -3.691223,
    36.735525
   ],
   [
    -3.691157,
    36.735481
   ],
   [
    -3.691104,
    36.73544
   ],
   [
    -3.690964,
    36.73544
   ],
   [
    -3.690889,
    36.735481
   ],
   [
    -3.690583,
    36.735779
   ],
   [
    -3.690517,
    36.735835
   ],
   [
    -3.690459,
    36.735855
   ],
   [
    -3.690355,
    36.735862
   ],
   [
    -3.690309,
    36.735865
   ],
   [
    -3.690251,
    36.735902
   ],
   [
    -3.690196,
    36.735884
   ]
  ]
 }
}
