{
 "type": "Feature",
 "properties": {
  "shape_id": "ALM_TORRECUEVAS_CIRC",
  "osm_relation": 18501914,
  "attribution": "© OpenStreetMap contributors, ODbL"
 },
 "geometry": {
  "type": "LineString",
  "coordinates": [
   [
    -3.690196,
    36.735884
   ],
   [
    -3.690137,
    36.735887
   ],
   [
    -3.690082,
    36.735912
   ],
   [
    -3.690047,
    36.735955
   ],
   [
    -3.69004,
    36.736005
   ],
   [
    -3.690062,
    36.736053
   ],
   [
    -3.6901,
    36.736083
   ],
   [
    -3.69002,
    36.736121
   ],
   [
    -3.690069,
    36.73621
   ],
   [
    -3.690094,
    36.736291
   ],
   [
    -3.690111,
    36.736376
   ],
   [
    -3.690123,
    36.736429
   ],
   [
    -3.690104,
    36.736471
   ],
   [
    -3.690113,
    36.736516
   ],
   [
    -3.690146,
    36.736552
   ],
   [
    -3.690102,
    36.736589
   ],
   [
    -3.690078,
    36.736618
   ],
   [
    -3.690029,
    36.736677
   ],
   [
    -3.689835,
    36.737108
   ],
   [
    -3.689783,
    36.737267
   ],
   [
    -3.689742,
    36.737442
   ],
   [
    -3.689727,
    36.737502
   ],
   [
    -3.689644,
    36.737521
   ],
   [
    -3.689636,
    36.737571
   ],
   [
    -3.68963,
    36.737618
   ],
   [
    -3.689616,
    36.73768
   ],
   [
    -3.689609,
    36.737718
   ],
   [
    -3.689592,
    36.737749
   ],
   [
    -3.689583,
    36.73778
   ],
   [
    -3.689587,
    36.737811
   ],
   [
    -3.689609,
    36.737842
   ],
   [
    -3.689629,
    36.73786
   ],
   [
    -3.689664,
    36.737868
   ],
   [
    -3.689693,
    36.737866
   ],
   [
    -3.689721,
    36.737861
   ],
   [
    -3.689706,
    36.737937
   ],
   [
    -3.689616,
    36.738061
   ],
   [
    -3.689602,
    36.738138
   ],
   [
    -3.689579,
    36.738244
   ],
   [
    -3.689523,
    36.738442
   ],
   [
    -3.689405,
    36.73876
   ],
   [
    -3.689275,
    36.73897
   ],
   [
    -3.689208,
    36.739072
   ],
   [
    -3.689068,
    36.739337
   ],
   [
    -3.688921,
    36.739606
   ],
   [
    -3.688858,
    36.739713
   ],
   [
    -3.688732,
    36.739927
   ],
   [
    -3.688598,
    36.740167
   ],
   [
    -3.688398,
    36.740515
   ],
   [
    -3.688227,
    36.740813
   ],
   [
    -3.688179,
    36.740892
   ],
   [
    -3.688113,
    36.740987
   ],
   [
    -3.688032,
    36.741104
   ],
   [
    -3.687939,
    36.741285
   ],
   [
    -3.687925,
    36.741373
   ],
   [
    -3.68793,
    36.741478
   ],
   [
    -3.687958,
    36.741574
   ],
   [
    -3.688035,
    36.7417
   ],
   [
    -3.688116,
    36.741845
   ],
   [
    -3.688135,
    36.741965
   ],
   [
    -3.688122,
    36.742075
   ],
   [
    -3.688049,
    36.742364
   ],
   [
    -3.68794,
    36.742655
   ],
   [
    -3.687876,
    36.74277
   ],
   [
    -3.687779,
    36.742875
   ],
   [
    -3.687554,
    36.743039
   ],
   [
    -3.68754,
    36.743053
   ],
   [
    -3.687396,
    36.743196
   ],
   [
    -3.687358,
    36.743252
   ],
   [
    -3.68731,
    36.743405
   ],
   [
    -3.68721,
    36.743674
   ],
   [
    -3.687159,
    36.743742
   ],
   [
    -3.687107,
    36.743815
   ],
   [
    -3.687013,
    36.743893
   ],
   [
    -3.686897,
    36.743995
   ],
   [
    -3.68658,
    36.744231
   ],
   [
    -3.686217,
    36.744502
   ],
   [
    -3.686131,
    36.744597
   ],
   [
    -3.686055,
    36.74474
   ],
   [
    -3.685975,
    36.744993
   ],
   [
    -3.685908,
    36.745119
   ],
   [
    -3.685786,
    36.745191
   ],
   [
    -3.685634,
    36.745243
   ],
   [
    -3.685329,
    36.745349
   ],
   [
    -3.685238,
    36.745399
   ],
   [
    -3.685171,
    36.745462
   ],
   [
    -3.685135,
    36.745519
   ],
   [
    -3.685112,
    36.745587
   ],
   [
    -3.68511,
    36.745678
   ],
   [
    -3.685199,
    36.746023
   ],
   [
    -3.685232,
    36.746158
   ],
   [
    -3.685225,
    36.74623
   ],
   [
    -3.685202,
    36.746301
   ],
   [
    -3.685155,
    36.746367
   ],
   [
    -3.68487,
    36.74665
   ],
   [
    -3.684821,
    36.746746
   ],
   [
    -3.684809,
    36.746821
   ],
   [
    -3.684807,
    36.74693
   ],
   [
    -3.684837,
    36.747031
   ],
   [
    -3.685124,
    36.74759
   ],
   [
    -3.685149,
    36.747665
   ],
   [
    -3.685148,
    36.747726
   ],
   [
    -3.68514,
    36.747788
   ],
   [
    -3.685081,
    36.747879
   ],
   [
    -3.684846,
    36.748154
   ],
   [
    -3.684764,
    36.748299
   ],
   [
    -3.684738,
    36.748405
   ],
   [
    -3.684734,
    36.748515
   ],
   [
    -3.684809,
    36.74873
   ],
   [
    -3.68487,
    36.748864
   ],
   [
    -3.684905,
    36.748941
   ],
   [
    -3.684913,
    36.749012
   ],
   [
    -3.684899,
    36.749081
   ],
   [
    -3.684887,
    36.749154
   ],
   [
    -3.68484,
    36.74922
   ],
   [
    -3.684772,
    36.749269
   ],
   [
    -3.684658,
    36.749326
   ],
   [
    -3.684537,
    36.74939
   ],
   [
    -3.684348,
    36.749481
   ],
   [
    -3.684197,
    36.749569
   ],
   [
    -3.684136,
    36.74962
   ],
   [
    -3.684089,
    36.749671
   ],
   [
    -3.684045,
    36.749797
   ],
   [
    -3.684051,
    36.749886
   ],
   [
    -3.684203,
    36.750299
   ],
   [
    -3.684218,
    36.750457
   ],
   [
    -3.684201,
    36.750591
   ],
   [
    -3.684106,
    36.750746
   ],
   [
    -3.683915,
    36.750951
   ],
   [
    -3.683879,
    36.75101
   ],
   [
    -3.68387,
    36.751078
   ],
   [
    -3.683869,
    36.751146
   ],
   [
    -3.683892,
    36.75125
   ],
   [
    -3.683927,
    36.751363
   ],
   [
    -3.683954,
    36.751453
   ],
   [
    -3.683982,
    36.751535
   ],
   [
    -3.684022,
    36.751613
   ],
   [
    -3.684042,
    36.751652
   ],
   [
    -3.684068,
    36.751691
   ],
   [
    -3.684103,
    36.751737
   ],
   [
    -3.684155,
    36.751779
   ],
   [
    -3.684293,
    36.751861
   ],
   [
    -3.684727,
    36.752066
   ],
   [
    -3.684791,
    36.752094
   ],
   [
    -3.684862,
    36.752138
   ],
   [
    -3.684907,
    36.752183
   ],
   [
    -3.684941,
    36.752233
   ],
   [
    -3.685091,
    36.752549
   ],
   [
    -3.685154,
    36.752641
   ],
   [
    -3.68523,
    36.752707
   ],
   [
    -3.685308,
    36.752743
   ],
   [
    -3.685385,
    36.752771
   ],
   [
    -3.685522,
    36.752792
   ],
   [
    -3.685643,
    36.752787
   ],
   [
    -3.685945,
    36.752679
   ],
   [
    -3.686094,
    36.752635
   ],
   [
    -3.686194,
    36.752632
   ],
   [
    -3.686265,
    36.752654
   ],
   [
    -3.686346,
    36.752692
   ],
   [
    -3.686436,
    36.752801
   ],
   [
    -3.686501,
    36.752904
   ],
   [
    -3.68652,
    36.753021
   ],
   [
    -3.68649,
    36.753108
   ],
   [
    -3.686253,
    36.753393
   ],
   [
    -3.686227,
    36.753466
   ],
   [
    -3.68623,
    36.753548
   ],
   [
    -3.686264,
    36.753623
   ],
   [
    -3.68634,
    36.753726
   ],
   [
    -3.686424,
    36.753817
   ],
   [
    -3.686566,
    36.753943
   ],
   [
    -3.686689,
    36.754031
   ],
   [
    -3.68678,
    36.754089
   ],
   [
    -3.686874,
    36.75412
   ],
   [
    -3.687107,
    36.754151
   ],
   [
    -3.687417,
    36.754194
   ],
   [
    -3.687486,
    36.754225
   ],
   [
    -3.68753,
    36.754278
   ],
   [
    -3.687564,
    36.75435
   ],
   [
    -3.687643,
    36.75467
   ],
   [
    -3.687683,
    36.754738
   ],
   [
    -3.687814,
    36.75485
   ],
   [
    -3.688277,
    36.755113
   ],
   [
    -3.688886,
    36.75546
   ],
   [
    -3.689206,
    36.755705
   ],
   [
    -3.689323,
    36.755816
   ],
   [
    -3.689396,
    36.755942
   ],
   [
    -3.689434,
    36.75606
   ],
   [
    -3.689436,
    36.756195
   ],
   [
    -3.689361,
    36.75645
   ],
   [
    -3.689339,
    36.756614
   ],
   [
    -3.689356,
    36.756791
   ],
   [
    -3.689409,
    36.757124
   ],
   [
    -3.689425,
    36.75738
   ],
   [
    -3.689455,
    36.757491
   ],
   [
    -3.689501,
    36.757574
   ],
   [
    -3.689708,
    36.757789
   ],
   [
    -3.689773,
    36.757905
   ],
   [
    -3.689833,
    36.758242
   ],
   [
    -3.689803,
    36.758386
   ],
   [
    -3.689656,
    36.758663
   ],
   [
    -3.68962,
    36.758808
   ],
   [
    -3.689623,
    36.759042
   ],
   [
    -3.689689,
    36.759399
   ],
   [
    -3.689718,
    36.759559
   ],
   [
    -3.689717,
    36.759687
   ],
   [
    -3.689677,
    36.759845
   ],
   [
    -3.689518,
    36.760144
   ],
   [
    -3.689512,
    36.760256
   ],
   [
    -3.68954,
    36.760368
   ],
   [
    -3.689699,
    36.760625
   ],
   [
    -3.68977,
    36.760815
   ],
   [
    -3.689744,
    36.760989
   ],
   [
    -3.689645,
    36.761181
   ],
   [
    -3.689559,
    36.761354
   ],
   [
    -3.689516,
    36.761548
   ],
   [
    -3.689513,
    36.761658
   ],
   [
    -3.689548,
    36.761848
   ],
   [
    -3.689705,
    36.762009
   ],
   [
    -3.689907,
    36.762146
   ],
   [
    -3.690062,
    36.762278
   ],
   [
    -3.690108,
    36.762335
   ],
   [
    -3.690127,
    36.762403
   ],
   [
    -3.690134,
    36.762479
   ],
   [
    -3.690125,
    36.762545
   ],
   [
    -3.690077,
    36.762661
   ],
   [
    -3.689949,
    36.762834
   ],
   [
    -3.689879,
    36.7629
   ],
   [
    -3.689844,
    36.762931
   ],
   [
    -3.689512,
    36.763271
   ],
   [
    -3.689339,
    36.763494
   ],
   [
    -3.688801,
    36.764029
   ],
   [
    -3.688722,
    36.76416
   ],
   [
    -3.688469,
    36.764804
   ],
   [
    -3.688301,
    36.765082
   ],
   [
    -3.687929,
    36.765545
   ],
   [
    -3.687659,
    36.765698
   ],
   [
    -3.686705,
    36.766061
   ],
   [
    -3.686653,
    36.766081
   ],
   [
    -3.686355,
    36.766207
   ],
   [
    -3.686256,
    36.766301
   ],
   [
    -3.686032,
    36.766593
   ],
   [
    -3.685863,
    36.766687
   ],
   [
    -3.68515,
    36.766999
   ],
   [
    -3.684904,
    36.767139
   ],
   [
    -3.684766,
    36.767315
   ],
   [
    -3.68474,
    36.767378
   ],
   [
    -3.684636,
    36.76792
   ],
   [
    -3.684563,
    36.768099
   ],
   [
    -3.684453,
    36.768211
   ],
   [
    -3.6838,
    36.768628
   ],
   [
    -3.684453,
    36.768211
   ],
   [
    -3.684563,
    36.768099
   ],
   [
    -3.684636,
    36.76792
   ],
   [
    -3.68474,
    36.767378
   ],
   [
    -3.684766,
    36.767315
   ],
   [
    -3.684904,
    36.767139
   ],
   [
    -3.68515,
    36.766999
   ],
   [
    -3.685863,
    36.766687
   ],
   [
    -3.686032,
    36.766593
   ],
   [
    -3.686256,
    36.766301
   ],
   [
    -3.686355,
    36.766207
   ],
   [
    -3.686653,
    36.766081
   ],
   [
    -3.686705,
    36.766061
   ],
   [
    -3.687659,
    36.765698
   ],
   [
    -3.687929,
    36.765545
   ],
   [
    -3.688301,
    36.765082
   ],
   [
    -3.688469,
    36.764804
   ],
   [
    -3.688722,
    36.76416
   ],
   [
    -3.688801,
    36.764029
   ],
   [
    -3.689339,
    36.763494
   ],
   [
    -3.689512,
    36.763271
   ],
   [
    -3.689844,
    36.762931
   ],
   [
    -3.689879,
    36.7629
   ],
   [
    -3.689949,
    36.762834
   ],
   [
    -3.690077,
    36.762661
   ],
   [
    -3.690125,
    36.762545
   ],
   [
    -3.690134,
    36.762479
   ],
   [
    -3.690127,
    36.762403
   ],
   [
    -3.690108,
    36.762335
   ],
   [
    -3.690062,
    36.762278
   ],
   [
    -3.689907,
    36.762146
   ],
   [
    -3.689705,
    36.762009
   ],
   [
    -3.689548,
    36.761848
   ],
   [
    -3.689513,
    36.761658
   ],
   [
    -3.689516,
    36.761548
   ],
   [
    -3.689559,
    36.761354
   ],
   [
    -3.689645,
    36.761181
   ],
   [
    -3.689744,
    36.760989
   ],
   [
    -3.68977,
    36.760815
   ],
   [
    -3.689699,
    36.760625
   ],
   [
    -3.68954,
    36.760368
   ],
   [
    -3.689512,
    36.760256
   ],
   [
    -3.689518,
    36.760144
   ],
   [
    -3.689677,
    36.759845
   ],
   [
    -3.689717,
    36.759687
   ],
   [
    -3.689718,
    36.759559
   ],
   [
    -3.689689,
    36.759399
   ],
   [
    -3.689623,
    36.759042
   ],
   [
    -3.68962,
    36.758808
   ],
   [
    -3.689656,
    36.758663
   ],
   [
    -3.689803,
    36.758386
   ],
   [
    -3.689833,
    36.758242
   ],
   [
    -3.689773,
    36.757905
   ],
   [
    -3.689708,
    36.757789
   ],
   [
    -3.689501,
    36.757574
   ],
   [
    -3.689455,
    36.757491
   ],
   [
    -3.689425,
    36.75738
   ],
   [
    -3.689409,
    36.757124
   ],
   [
    -3.689356,
    36.756791
   ],
   [
    -3.689339,
    36.756614
   ],
   [
    -3.689361,
    36.75645
   ],
   [
    -3.689436,
    36.756195
   ],
   [
    -3.689434,
    36.75606
   ],
   [
    -3.689396,
    36.755942
   ],
   [
    -3.689323,
    36.755816
   ],
   [
    -3.689206,
    36.755705
   ],
   [
    -3.688886,
    36.75546
   ],
   [
    -3.688277,
    36.755113
   ],
   [
    -3.687814,
    36.75485
   ],
   [
    -3.687683,
    36.754738
   ],
   [
    -3.687643,
    36.75467
   ],
   [
    -3.687564,
    36.75435
   ],
   [
    -3.68753,
    36.754278
   ],
   [
    -3.687486,
    36.754225
   ],
   [
    -3.687417,
    36.754194
   ],
   [
    -3.687107,
    36.754151
   ],
   [
    -3.686874,
    36.75412
   ],
   [
    -3.68678,
    36.754089
   ],
   [
    -3.686689,
    36.754031
   ],
   [
    -3.686566,
    36.753943
   ],
   [
    -3.686424,
    36.753817
   ],
   [
    -3.68634,
    36.753726
   ],
   [
    -3.686264,
    36.753623
   ],
   [
    -3.68623,
    36.753548
   ],
   [
    -3.686227,
    36.753466
   ],
   [
    -3.686253,
    36.753393
   ],
   [
    -3.68649,
    36.753108
   ],
   [
    -3.68652,
    36.753021
   ],
   [
    -3.686501,
    36.752904
   ],
   [
    -3.686436,
    36.752801
   ],
   [
    -3.686346,
    36.752692
   ],
   [
    -3.686265,
    36.752654
   ],
   [
    -3.686194,
    36.752632
   ],
   [
    -3.686094,
    36.752635
   ],
   [
    -3.685945,
    36.752679
   ],
   [
    -3.685643,
    36.752787
   ],
   [
    -3.685522,
    36.752792
   ],
   [
    -3.685385,
    36.752771
   ],
   [
    -3.685308,
    36.752743
   ],
   [
    -3.68523,
    36.752707
   ],
   [
    -3.685154,
    36.752641
   ],
   [
    -3.685091,
    36.752549
   ],
   [
    -3.684941,
    36.752233
   ],
   [
    -3.684907,
    36.752183
   ],
   [
    -3.684862,
    36.752138
   ],
   [
    -3.684791,
    36.752094
   ],
   [
    -3.684727,
    36.752066
   ],
   [
    -3.684293,
    36.751861
   ],
   [
    -3.684155,
    36.751779
   ],
   [
    -3.684103,
    36.751737
   ],
   [
    -3.684068,
    36.751691
   ],
   [
    -3.684042,
    36.751652
   ],
   [
    -3.684022,
    36.751613
   ],
   [
    -3.683982,
    36.751535
   ],
   [
    -3.683954,
    36.751453
   ],
   [
    -3.683927,
    36.751363
   ],
   [
    -3.683892,
    36.75125
   ],
   [
    -3.683869,
    36.751146
   ],
   [
    -3.68387,
    36.751078
   ],
   [
    -3.683879,
    36.75101
   ],
   [
    -3.683915,
    36.750951
   ],
   [
    -3.684106,
    36.750746
   ],
   [
    -3.684201,
    36.750591
   ],
   [
    -3.684218,
    36.750457
   ],
   [
    -3.684203,
    36.750299
   ],
   [
    -3.684051,
    36.749886
   ],
   [
    -3.684045,
    36.749797
   ],
   [
    -3.684089,
    36.749671
   ],
   [
    -3.684136,
    36.74962
   ],
   [
    -3.684197,
    36.749569
   ],
   [
    -3.684348,
    36.749481
   ],
   [
    -3.684537,
    36.74939
   ],
   [
    -3.684658,
    36.749326
   ],
   [
    -3.684772,
    36.749269
   ],
   [
    -3.68484,
    36.74922
   ],
   [
    -3.684887,
    36.749154
   ],
   [
    -3.684899,
    36.749081
   ],
   [
    -3.684913,
    36.749012
   ],
   [
    -3.684905,
    36.748941
   ],
   [
    -3.68487,
    36.748864
   ],
   [
    -3.684809,
    36.74873
   ],
   [
    -3.684734,
    36.748515
   ],
   [
    -3.684738,
    36.748405
   ],
   [
    -3.684764,
    36.748299
   ],
   [
    -3.684846,
    36.748154
   ],
   [
    -3.685081,
    36.747879
   ],
   [
    -3.68514,
    36.747788
   ],
   [
    -3.685148,
    36.747726
   ],
   [
    -3.685149,
    36.747665
   ],
   [
    -3.685124,
    36.74759
   ],
   [
    -3.684837,
    36.747031
   ],
   [
    -3.684807,
    36.74693
   ],
   [
    -3.684809,
    36.746821
   ],
   [
    -3.684821,
    36.746746
   ],
   [
    -3.68487,
    36.74665
   ],
   [
    -3.685155,
    36.746367
   ],
   [
    -3.685202,
    36.746301
   ],
   [
    -3.685225,
    36.74623
   ],
   [
    -3.685232,
    36.746158
   ],
   [
    -3.685199,
    36.746023
   ],
   [
    -3.68511,
    36.745678
   ],
   [
    -3.685112,
    36.745587
   ],
   [
    -3.685135,
    36.745519
   ],
   [
    -3.685171,
    36.745462
   ],
   [
    -3.685238,
    36.745399
   ],
   [
    -3.685329,
    36.745349
   ],
   [
    -3.685634,
    36.745243
   ],
   [
    -3.685786,
    36.745191
   ],
   [
    -3.685908,
    36.745119
   ],
   [
    -3.685975,
    36.744993
   ],
   [
    -3.686055,
    36.74474
   ],
   [
    -3.686131,
    36.744597
   ],
   [
    -3.686217,
    36.744502
   ],
   [
    -3.68658,
    36.744231
   ],
   [
    -3.686897,
    36.743995
   ],
   [
    -3.687013,
    36.743893
   ],
   [
    -3.687107,
    36.743815
   ],
   [
    -3.687159,
    36.743742
   ],
   [
    -3.68721,
    36.743674
   ],
   [
    -3.68731,
    36.743405
   ],
   [
    -3.687358,
    36.743252
   ],
   [
    -3.687396,
    36.743196
   ],
   [
    -3.68754,
    36.743053
   ],
   [
    -3.687554,
    36.743039
   ],
   [
    -3.687779,
    36.742875
   ],
   [
    -3.687876,
    36.74277
   ],
   [
    -3.68794,
    36.742655
   ],
   [
    -3.688049,
    36.742364
   ],
   [
    -3.688122,
    36.742075
   ],
   [
    -3.688135,
    36.741965
   ],
   [
    -3.688116,
    36.741845
   ],
   [
    -3.688035,
    36.7417
   ],
   [
    -3.687958,
    36.741574
   ],
   [
    -3.68793,
    36.741478
   ],
   [
    -3.687925,
    36.741373
   ],
   [
    -3.687939,
    36.741285
   ],
   [
    -3.688032,
    36.741104
   ],
   [
    -3.688113,
    36.740987
   ],
   [
    -3.688179,
    36.740892
   ],
   [
    -3.688227,
    36.740813
   ],
   [
    -3.688398,
    36.740515
   ],
   [
    -3.688598,
    36.740167
   ],
   [
    -3.688732,
    36.739927
   ],
   [
    -3.688858,
    36.739713
   ],
   [
    -3.688921,
    36.739606
   ],
   [
    -3.689068,
    36.739337
   ],
   [
    -3.689208,
    36.739072
   ],
   [
    -3.689275,
    36.73897
   ],
   [
    -3.689405,
    36.73876
   ],
   [
    -3.689523,
    36.738442
   ],
   [
    -3.689579,
    36.738244
   ],
   [
    -3.689602,
    36.738138
   ],
   [
    -3.689616,
    36.738061
   ],
   [
    -3.689706,
    36.737937
   ],
   [
    -3.689721,
    36.737861
   ],
   [
    -3.689748,
    36.737849
   ],
   [
    -3.689762,
    36.737823
   ],
   [
    -3.689767,
    36.737781
   ],
   [
    -3.689764,
    36.737756
   ],
   [
    -3.689764,
    36.737718
   ],
   [
    -3.68977,
    36.737691
   ],
   [
    -3.689777,
    36.737655
   ],
   [
    -3.689795,
    36.737579
   ],
   [
    -3.689786,
    36.737533
   ],
   [
    -3.689727,
    36.737502
   ],
   [
    -3.689742,
    36.737442
   ],
   [
    -3.689783,
    36.737267
   ],
   [
    -3.689835,
    36.737108
   ],
   [
    -3.690029,
    36.736677
   ],
   [
    -3.690078,
    36.736618
   ],
   [
    -3.690102,
    36.736589
   ],
   [
    -3.690146,
    36.736552
   ],
   [
    -3.690209,
    36.736573
   ],
   [
    -3.690276,
    36.736562
   ],
   [
    -3.690324,
    36.736523
   ],
   [
    -3.690336,
    36.736465
   ],
   [
    -3.690301,
    36.736412
   ],
   [
    -3.690233,
    36.736387
   ],
   [
    -3.690217,
    36.736337
   ],
   [
    -3.690206,
    36.736279
   ],
   [
    -3.690234,
    36.7362
   ],
   [
    -3.690272,
    36.736151
   ],
   [
    -3.690259,
    36.736078
   ],
   [
    -3.69028,
    36.736061
   ],
   [
    -3.690306,
    36.736021
   ],
   [
    -3.69031,
    36.735976
   ],
   [
    -3.69029,
    36.735934
   ],
   [
    -3.690251,
    36.735902
   ],
   [
    -3.690196,
    36.735884
   ]
  ]
 }
}
